name,address,prefecture,phone_number,exhibition,image_provider,exhibition_image,museum_url,exhibition_url,startDate,endDate,description,opening_hours,closing_days,admission_fee,access,latitude,longitude,category
"国立新美術館","〒106-8558 東京都港区六本木7丁目22-2","東京","050-5541-8600","時代のプリズム：日本で生まれた美術表現 1989-2010","","/images/exhibition-image/1560030.jpg","https://www.nact.jp/","https://www.nact.jp/exhibition_special/2025/JCAW/","2025年9月3日(水)","2025年12月8日(月)","本展は、平成時代の幕開けから2010年までの約20年間に、日本で生まれた革新的な美術表現を振り返る展覧会です。冷戦終結後の国際交流の進展や、国内外の社会的変化を背景に、アーティストたちはどのように時代を映し出す作品を生み出してきたのでしょうか。\\n展示は3つのテーマに分かれています：\\n「過去という亡霊」：戦争や被爆など、歴史的トラウマと向き合う作品群。\\n「自己と他者と」：アイデンティティ、ジェンダー、文化の違いを探る表現。\\n「コミュニティの持つ未来」：社会とのつながりや共生の可能性を模索するプロジェクト。\\n国内外の50組を超えるアーティストによる表現を通して、現代日本美術の多様性と国際的な広がりを感じられる機会です。香港の美術館M+との協働キュレーションにより、グローバルな視点から日本のアートを見つめ直します。","10:00-18:00\\n金曜日・土曜日は20:00まで","毎週火曜日 (ただし火曜日が祝日または振替休日の場合は開館し、翌平日に開館)","企画展は展覧会ごとに定めます。\\n公募展は美術団体によって異なります。","東京メトロ千代田線乃木坂駅青山霊園方面改札6出口(美術館直結)\\n東京メトロ日比谷線六本木駅4a出口から徒歩約5分\\n都営地下鉄大江戸線六本木駅7出口から徒歩約4分",35.665312,139.726382,"美術館"
"国立新美術館","〒106-8558 東京都港区六本木7丁目22-2","東京","050-5541-8600","ブルガリ カレイドス　色彩・文化・技巧","","/images/exhibition-image/1560030.jpg","https://www.nact.jp/","https://www.nact.jp/exhibition_special/2025/bvlgari_kaleidos/","2025年9月7日(水)","2025年12月15日(月)","10年ぶりに日本で開催されるブルガリの大規模展覧会。本展では、約350点にもおよぶハイジュエリー作品を通して、ブランドの歴史とその色彩表現の美学をたどります。\\n「カレイドス（Kaleidos）」とはギリシャ語で「美しさ」と「形」を意味し、展覧会のテーマはまさに色と造形の調和。ブルガリ・ヘリテージ・コレクションや貴重な個人所蔵品に加え、イタリアと日本の文化的なつながりにも焦点が当てられています。\\nさらに、現代アーティストのララ・ファヴァレット、森万里子、中山晃子の3名による色彩に関する作品も展示。ジュエリーだけでなく、インスタレーションや映像、インタラクティブな空間演出も展開され、訪れる人々に没入型の鑑賞体験を提供します。\\nブルガリの色彩と技巧が織りなす、多面的で華麗なアートの世界を体感できる注目の展覧会です。","10:00-18:00\\n金曜日・土曜日は20:00まで","毎週火曜日 (ただし火曜日が祝日または振替休日の場合は開館し、翌平日に開館)","企画展は展覧会ごとに定めます。\\n公募展は美術団体によって異なります。","東京メトロ千代田線乃木坂駅青山霊園方面改札6出口(美術館直結)\\n東京メトロ日比谷線六本木駅4a出口から徒歩約5分\\n都営地下鉄大江戸線六本木駅7出口から徒歩約4分",35.665312,139.726382,"美術館"
"東京国立近代美術館","〒102-0091 東京都千代田区北の丸公園3-1","東京","050-5541-8600","コレクションを中心とした特集　記録をひらく 記憶をつむぐ","","/images/exhibition-image/1560030.jpg","https://www.momat.go.jp/","https://www.momat.go.jp/exhibitions/563","2025年7月15日(火)","2025年10月26日(日)","2025年は「昭和100年」かつ「戦後80年」という節目の年。これにあわせて開催される本展覧会は、1930年代から1970年代にかけての日本の歴史や社会、文化を、美術を通して振り返ります。\\n絵画・写真・映画といった視覚表現は、当時の記録であると同時に、今を生きる私たちが過去をどのように記憶し、継承していくかを問いかける重要な手がかりでもあります。作品に映し出されたのは、時代を生きた人々の美意識や、歴史を見つめる視点の変化。美術が果たしてきた「記録」と「記憶」の二つの役割に注目しながら、戦争体験をもたない世代がどのように歴史と向き合えるかを探ります。\\n展示では、戦争記録画などを含む館蔵品に加え、他機関からの資料もあわせて約280点を紹介。美術館を“記憶装置”として、戦争と平和、そして未来へのまなざしを考える機会となる展覧会です。","10:00-17:00(金曜日・土曜日は10:00-20:00)","月曜日（ただし7月21日、8月11日、9月15日、10月13日は開館）、7月22日、8月12日、9月16日、10月14日","一般1500円\\n大学生800円\\n高校生以下および18歳未満、障害者手帳をお持ちの方とその付添者（1名）は無料。それぞれ入館の際、学生証等の年齢のわかるもの、障害者手帳等をご提示ください。","東京メトロ東西線「竹下駅」 1b出口より徒歩3分\\n東京メトロ東西線・半蔵門線・都営新宿線「九段下駅」4番出口より徒歩15分\\n東京メトロ半蔵門線・都営新宿線・三田線「神保町駅」A1出口より徒歩15分",35.690528,139.754724,"美術館"
"東京国立近代美術館","〒102-0091 東京都千代田区北の丸公園3-1","東京","050-5541-8600","所蔵作品展 MOMATコレクション","","/images/exhibition-image/1560030.jpg","https://www.momat.go.jp/","https://www.momat.go.jp/exhibitions/r7-1","2025年7月15日(火)","2025年10月26日(日)","東京国立近代美術館が所蔵する約14000点の中から、会期ごとに約200点を厳選して紹介する、日本最大級のコレクション展です。展示は全12室で構成され、それぞれに小さなテーマが設定されており、19世紀末から現代までの日本美術の流れを体系的に体験することができます。\\n今期の見どころは、国の重要文化財に指定された油彩画5点が一堂に会する貴重な機会。また、戦後80年という節目にあわせ、戦後社会と美術の関係に焦点をあてた特集展示も行われています。さらに、女性アーティストや地域性に配慮した新収蔵作品の展示にも注目です。\\n伝統と革新が交差する、時代を映す「美のアーカイブ」を、ぜひご堪能ください。","10:00-17:00(金曜日・土曜日は10:00-20:00)","月曜日（ただし7月21日、8月11日、9月15日、10月13日は開館）、7月22日、8月12日、9月16日、10月14日","一般 500円 （400円） 大学生 250円 （200円）\\n（　）内は20名以上の団体料金。いずれも消費税込み。\\n5時から割引（金・土曜） ：一般　300円　大学生　150円\\n高校生以下および18歳未満、65歳以上、「MOMATパスポート」をお持ちの方、障害者手帳をお持ちの方とその付添者(1名)は無料。入館の際に、学生証、運転免許証等の年齢の分かるもの、障害者手帳等をご提示ください。","東京メトロ東西線「竹下駅」 1b出口より徒歩3分\\n東京メトロ東西線・半蔵門線・都営新宿線「九段下駅」4番出口より徒歩15分\\n東京メトロ半蔵門線・都営新宿線・三田線「神保町駅」A1出口より徒歩15分",35.690528,139.754724,"美術館"
"東京国立近代美術館","〒102-0091 東京都千代田区北の丸公園3-1","東京","050-5541-8600","新収蔵＆特別公開｜コレクションにみる日韓","","/images/exhibition-image/1560030.jpg","https://www.momat.go.jp/","https://www.momat.go.jp/exhibitions/r7-1-g4","2025年7月15日(火)","2025年10月26日(日)","2025年は日本と韓国の国交正常化から60周年の節目の年です。本展示では、植民地支配や戦後の復興、民主化運動など、両国がそれぞれに歩んできた複雑な近現代史を背景に、日韓関係と美術表現の関わりに光を当てます。\\n特に注目すべきは、韓国現代美術を代表する作家、朴栖甫（パク・ソボ）とソン・ヌンギョンの作品。これらは日本における在日コリアンの歴史や、戦後の国際関係と個人のアイデンティティの問題にも通じる深いテーマを内包しています。\n本展は、日韓両国の過去と現在を見つめ直し、相互理解を深めるための一歩となることを目指しています。歴史の記憶と向き合いながら、アートを通じて心を通わせるきっかけとなるでしょう。","10:00-17:00(金曜日・土曜日は10:00-20:00)","月曜日（ただし7月21日、8月11日、9月15日、10月13日は開館）、7月22日、8月12日、9月16日、10月14日 ","一般　500円　（400円）　大学生　250円　（200円）\\n（　）内は20名以上の団体料金。いずれも消費税込。\\n5時から割引（金・土曜） ：一般　300円　大学生　150円\\n高校生以下および18歳未満、65歳以上、「MOMATパスポート」をお持ちの方、障害者手帳をお持ちの方とその付添者(1名)は無料。入館の際に、学生証、運転免許証等の年齢の分かるもの、障害者手帳等をご提示ください。","東京メトロ東西線「竹下駅」 1b出口より徒歩3分\\n東京メトロ東西線・半蔵門線・都営新宿線「九段下駅」4番出口より徒歩15分\\n東京メトロ半蔵門線・都営新宿線・三田線「神保町駅」A1出口より徒歩15分",35.6904654,139.7545042,"美術館"
"国立西洋美術館","〒110-0007 東京都台東区上野公園7-7","東京","050-5541-8600","オルセー美術館所蔵 印象派―室内をめぐる物語","","/images/exhibition-image/1560030.jpg","https://www.nmwa.go.jp/jp/","https://www.nmwa.go.jp/jp/exhibitions/2025orsay.html","2025年10月25日(土)","2026年2月15日(日)","後日載せます","9:30-17:30\\n金曜日・土曜日9:30-20:00\\n入室は閉室の30分前まで","月曜日、11月4日[火]、11月25日[火]、12月28日[日]－2026年1月1日[木･祝]、1月13日[火]（ただし、11月3日[月･祝]、11月24日[月･休]、1月12日[月･祝]、2月9日[月]は開館）","観覧料\\n一般2300円、大学生1400円、高校生1000円\\n前売券\\n一般2100円、大学生1300円、高校生900円\\n※中学生以下、障害者手帳*をお持ちの方とその付添者1名は無料（入館の際に学生証等の年齢の確認できるもの、障害者手帳等をご提示ください）\\n*対象となる手帳：身体障害者手帳・療育手帳・精神障害者保健福祉手帳・被爆者健康手帳\\n※大学生及び高校生の方は、入館の際に学生証をご提示ください。","JR上野駅下車(公園口出口)徒歩1分\\n京成電鉄京成上野駅下車徒歩7分\\n東京メトロ銀座線、日比谷線上野駅下車徒歩8分",35.715432,139.775966,"美術館"
"東京都美術館","〒110-0007 東京都台東区上野公園8-36","東京","03-3823-6921","つくるよろこび　生きるためのDIY","","/images/exhibition-image/1560030.jpg","https://www.tobikan.jp/","https://www.tobikan.jp/exhibition/2025_diy.html","2025年7月24日(木)","2025年10月8日(水)","本展では、「DIY（Do It Yourself）」をテーマに、自らの手で何かをつくることを実践している現代アーティスト5組と建築家2組を紹介します。彼らの作品は、身の回りにある素材を使ったものや、人々が集い協力する場づくり、さらには震災や経済的困難の中で生まれた創意工夫に根差した表現など、多様なアプローチをとっています。\\n本展は単に「ものをつくる楽しさ」を紹介するのではなく、「つくること」と「生きること」がどのように結びついているかを問いかける内容になっています。アートや建築を通して、私たち自身の暮らし方や社会との関わりを見つめ直すきっかけになるでしょう。","9:30-17:30(入館は17:00まで)\\n金曜日:9:30-20:00","月曜日、9月16日(火)\\n※ただし、8月11日(月・祝)、9月15日(月・祝)、9月22日（月）は開室","一般 1100円 / 大学生・専門学校生 700円 / 65歳以上 800円 / 18歳以下、高校生以下無料\\n※身体障害者手帳・愛の手帳・療育手帳・精神障害者保健福祉手帳・被爆者健康手帳をお持ちの方とその付添いの方（1名まで）は無料\\n※18歳以下の方、高校生、大学生、専門学校生、65歳以上の方、各種お手帳をお持ちの方は、いずれも証明できるものをご提示ください","JR上野駅「公園改札」より徒歩7分\\n東京メトロ銀座線・日比谷線上野駅「7番出口」より徒歩10分\\n京成電鉄京成上野駅より徒歩10分",35.717225,139.772848,"美術館"
"東京都美術館","〒110-0007 東京都台東区上野公園8-36","東京","03-3823-6921","ゴッホ展　家族がつないだ画家の夢","","/images/exhibition-image/1560030.jpg","https://www.tobikan.jp/","https://www.tobikan.jp/exhibition/2025_vangogh.html","2025年9月12日(金)","2025年12月21日(日)","本展は、フィンセント・ファン・ゴッホの作品が今日までどのように受け継がれてきたかに焦点を当てた特別展です。生前は評価されなかったゴッホですが、その作品の大半を保管していた弟テオ、そしてテオの死後、作品の価値を信じて広め続けた妻ヨー、さらには彼らの息子フィンセント・ウィレムによって、ゴッホの芸術は次世代へと丁寧に引き継がれてきました。\\nヨーは、手紙の編集・出版や展覧会への出展などを通じて、ゴッホの画家としての地位確立に尽力。息子ウィレムは作品を守るため財団を設立し、ゴッホ美術館の設立にも貢献しました。\\n今回の展示では、ファン・ゴッホ美術館所蔵の代表作30点以上に加え、日本初公開となるゴッホの手紙も紹介。彼の芸術と、それを支えた家族の想いに触れながら、「絵で人々の心を癒したい」というゴッホの願いが今も生き続けていることを実感できる構成になっています。","9:30-17:30(入館は17:00まで)\\n金曜日:9:30-20:00","月曜日、9月16日(火)、10月14日(火)、11月4日（火）、11月25日(火)\\n※ただし9月15日(月・祝)、9月22日(月)、10月13日(月・祝)、11月3日(月・祝)、11月24日(月・休)は開室","当日券　一般 2300円（2100円）／ 大学生・専門学校生 1300円（1100円）／ 65歳以上 1600円（1400円）\\n・（　）内は前売料金。前売券は2025年7月25日(金)～9月11日(金)までの販売。\\n・大学生・専門学校生は、9月平日のみ無料。\\n・18歳以下、高校生以下は無料。\\n・身体障害者手帳・愛の手帳・療育手帳・精神障害者保健福祉手帳・被爆者健康手帳をお持ちの方とその付添いの方（1名まで）は無料。\\n・18歳以下、高校生、大学生・専門学校生、65歳以上の方、各種お手帳をお持ちの方は、いずれも証明できるものをご提示ください。\\n※土日・祝日および12月16日（火）以降は日時指定予約制（当日空きがあれば入場可）\\n※平日にご来場の場合は日時指定予約は不要です。","JR上野駅「公園改札」より徒歩7分\\n東京メトロ銀座線・日比谷線上野駅「7番出口」より徒歩10分\\n京成電鉄京成上野駅より徒歩10分",35.717225,139.772848,"美術館"
"森美術館","〒106-6150 東京都港区六本木6丁目10－1 六本木ヒルズ森タワー 53階","東京","050-5541-8600","藤本壮介の建築：原初・未来・森","","/images/exhibition-image/1560030.jpg","https://www.mori.art.museum/jp/","https://www.mori.art.museum/jp/exhibitions/soufujimoto/index.html","2025年7月2日(水)","2025年11月9日(日)","建築家・藤本壮介（1971年生まれ）は、東京・パリ・深圳を拠点に世界各地で活躍し、住宅や大学、美術館、都市建築に至るまで多様なプロジェクトを手がけてきました。代表作には《武蔵野美術大学美術館・図書館》（東京）、《ラルブル・ブラン》（フランス）、《ハンガリー音楽の家》（ブダペスト）などがあり、現在は2025年大阪・関西万博の会場デザインも担っています。\\n本展は、藤本にとって初の大規模な回顧展で、初期の作品から現在進行中のプロジェクトまでを網羅的に紹介。模型、設計図、写真、大型インスタレーションなどを通じて、彼の建築思想や創作の軌跡を体感できる内容となっています。\\nまた、「未来の都市像」への提案を通して、環境や人間関係、テクノロジーと建築の関係についても考察。建築の社会的役割が拡大する現代において、藤本の作品は私たちの暮らしのあり方を再考するヒントを与えてくれます。","0:00～22:00\\n※火曜日のみ17:00まで\\n※ただし、8月27日（水）は17:00まで、9月23日（火）は22:00まで\\n※最終入館は閉館時間の30分前まで",会期中無休,"[平日]\\n一般 2300円（2100円）\\n学生（高校・大学生）1400円（1300円）\\n中学生以下　無料\\nシニア（65歳以上）2000円（1800円）\\n［土・日・休日］\\n一般 2500円（2300円）\\n学生（高校・大学生）1500円（1400円）\\n中学生以下　無料\\nシニア（65歳以上）2200円（2000円）\\n※本展は、事前予約制（日時指定券）を導入しています。専用オンラインサイトから「日時指定券」をご購入ください。\\n※当日、日時指定枠に空きがある場合は、事前予約なしでご入館いただけます。","東京メトロ日比谷線「六本木駅」1c出口 徒歩3分(コンコースにて直結)\\n都営地下鉄大江戸線「六本木駅」3出口 徒歩6分\\n都営地下鉄大江戸線「麻布十番駅」7出口 徒歩9分\\n東京メトロ南北線「麻布十番駅」4出口 徒歩12分\\n東京メトロ千代田線「乃木坂駅」5出口 徒歩10分",35.660406,139.729026,"美術館"
"アーティゾン美術館","〒104-0031 東京都中央区京橋1丁目7－2","東京","050-5541-8600","石橋財団コレクション選 特集コーナー展示　安井曾太郎","","/images/exhibition-image/1560030.jpg","https://www.artizon.museum/","https://www.artizon.museum/exhibition/detail/590","2025年10月11日(土)","2026年1月12日(月)","アーティゾン美術館を運営する石橋財団は、19世紀後半の印象派から20世紀の西洋近代絵画、明治以降の日本近代絵画、戦後の抽象絵画、さらに東洋の近世・近代美術や古代ギリシア・ローマ美術まで、約3000点の幅広いコレクションを所蔵しています。これらの作品から厳選したものを年間を通じて展示し、多様な美術の流れを紹介しています。\\nまた、本展の特集では、画家・安井曾太郎（1888–1955）に焦点を当てます。彼はフランス留学を経て独自のデフォルメ表現を確立し、「安井様式」と呼ばれるスタイルを生み出しました。特にアーティゾン美術館が近年収蔵した代表作《座像》（1929年）は、彼の画風の原点を示す重要な作品です。本展ではこの作品を軸に、安井の画業の変遷をたどります。","10:00-18:00 祝日を除く毎週金曜日は20：00まで\\n＊ 入館は閉館の30分前まで","月曜日（10月13日、11月3日、11月24日、1月12日は開館）、10月14日、11月4日、11月25日、 12月28日–1月3日","[ウェブ予約チケット]\\n一般 1200 円\\n大学生・専門学校生・高校生 無料 要ウェブ予約\\n入館時に学生証か生徒手帳をご提示ください。\\n障がい者手帳をお持ちの方と付き添いの方1名	無料 予約不要\\n入館時に障がい者手帳をご提示ください。\\n中学生以下の方	無料 予約不要\\n[窓口販売チケット]\\n一般　1500 円\\n大学生・専門学校生・高校生	無料 要ウェブ予約\\n入館時に学生証か生徒手帳をご提示ください。\\n障がい者手帳をお持ちの方と付き添いの方1名	無料 予約不要\\n入館時に障がい者手帳をご提示ください。\\n中学生以下の方	無料 予約不要","JR東京駅(八重洲中央口)、東京メトロ銀座線・京橋駅(6番、7番出口)、東京メトロ・銀座線/東西線/都営浅草線・日本橋駅(B1出口)から徒歩5分",35.678833,139.771978,"美術館"
"アーティゾン美術館","〒104-0031 東京都中央区京橋1丁目7－2","東京","050-5541-8600","ジャム・セッション 石橋財団コレクション×山城知佳子×志賀理江子　漂着","","/images/exhibition-image/1560030.jpg","https://www.artizon.museum/","https://www.artizon.museum/exhibition/detail/589","2025年10月11日(土)","2026年1月12日(月)","「ジャム・セッション」は、石橋財団コレクションと現代アーティストの共演により、美術の新たな可能性を模索するシリーズです。第6回目は、沖縄と東北の異なる地域に根ざし、歴史や記憶に深く向き合ってきた山城知佳子と志賀理江子を迎えます。\\n近年、日本では震災や戦争の記憶が薄れ、中心と周縁のあいだに見えにくい分断が拡大しています。本展は「中心と周縁」「土地と記憶」というテーマを軸に、こうした社会的・文化的断絶に改めて光を当てます。\\nポストトゥルース（情報の真偽が曖昧になる時代）において、過去とどのように向き合うかは大きな課題です。両作家の作品は、身体的な表現を通じて歴史や記憶を問いかけ、鑑賞者の視点を揺さぶる力強いメッセージを持っています。\\nこの展示を通じて、複雑で困難な現実に対する新たな理解と、芸術の力について考える機会を提供します。","10:00-18:00 祝日を除く毎週金曜日は20：00まで\\n＊ 入館は閉館の30分前まで","月曜日（10月13日、11月3日、11月24日、1月12日は開館）、10月14日、11月4日、11月25日、 12月28日–1月3日","[ウェブ予約チケット]\\n一般 1200 円\\n大学生・専門学校生・高校生 無料 要ウェブ予約\\n入館時に学生証か生徒手帳をご提示ください。\\n障がい者手帳をお持ちの方と付き添いの方1名	無料 予約不要\\n入館時に障がい者手帳をご提示ください。\\n中学生以下の方	無料 予約不要\\n[窓口販売チケット]\\n一般　1500 円\\n大学生・専門学校生・高校生	無料 要ウェブ予約\\n入館時に学生証か生徒手帳をご提示ください。\\n障がい者手帳をお持ちの方と付き添いの方1名	無料 予約不要\\n入館時に障がい者手帳をご提示ください。\\n中学生以下の方	無料 予約不要","JR東京駅(八重洲中央口)、東京メトロ銀座線・京橋駅(6番、7番出口)、東京メトロ・銀座線/東西線/都営浅草線・日本橋駅(B1出口)から徒歩5分",35.678833,139.771978,"美術館"
"根津美術館","〒107-0062 東京都港区青山6丁目5－1","東京","03-3400-2536","焼き締め陶 土を感じる","","/images/exhibition-image/1560030.jpg","https://www.nezu-muse.or.jp/","https://www.nezu-muse.or.jp/jp/exhibition/next.html","2025年9月13日(土)","2025年10月19日(日)","釉薬（うわぐすり）を使わず、土そのものを高温で焼き締めて仕上げる「焼き締め陶」は、素朴で力強い風合いが特徴のやきものです。\\n日本では中世から、こうした自然な風合いを持つ陶器が茶の湯の世界などで高く評価されてきました。\\n本展では、南蛮焼や信楽（しがらき）、備前（びぜん）、伊賀（いが）など、各地の焼き締め陶を紹介し、土の性質や焼成によって生まれる独自の表情に注目します。さらに、近代になって美術品として再発見された中世の壺や甕（かめ）にも焦点を当てます。\\n「土を愛し、愛でる」──日本人の美意識が育んだ焼き締め陶の多彩な魅力を、どうぞご堪能ください。","午前10時～午後5時 (入館は4時30分まで)","毎週月曜日　ただし9月15日、10月13日の祝日は開館し、翌火曜休館","オンライン日時指定予約\\n一般1300円\\n学生1000円\\n＊障害者手帳提示者および同伴者は200円引き、中学生以下は無料","東京メトロ銀座線・半蔵門線・千代田線表参道駅A5出口より徒歩8分",35.662223,139.717125,"美術館"
"東京都庭園美術館","〒108-0071 東京都港区白金台5丁目21－9","東京","050-5541-8600","永遠なる瞬間　ヴァン クリーフ&アーペル —— ハイジュエリーが語るアール・デコ","","/images/exhibition-image/1560030.jpg","https://www.teien-art-museum.ne.jp/","https://www.teien-art-museum.ne.jp/exhibition/250927-260118_timeless-art-deco/","2025年9月27日(土)","2026年1月18日(日)","高級ジュエリーブランド「ヴァン クリーフ＆アーペル」は、1895年に創設されて以来、詩的なデザインと革新的な技術で世界中の人々を魅了してきました。本展は、1925年にパリで開催された「アール・デコ博覧会」から100周年を記念して開催されるものです。\\n展示では、メゾンの代表的な歴史的ジュエリー「パトリモニー コレクション」や、個人所蔵の名品、さらにはアーカイブ資料など、合計約250点以上が公開されます。特に注目は、アール・デコ期を象徴する1924年作《赤と白のローズ ブレスレット》。その精緻なデザインから、当時の美意識やブランドのビジョンを垣間見ることができます。\\n会場となる東京都庭園美術館（旧朝香宮邸）は、まさにアール・デコ建築の傑作。本館では1910〜30年代の作品、新館では現代に受け継がれる伝統技術（サヴォアフェール）を紹介し、時代を超えた美の世界を体感できます。\\nアール・デコとジュエリーの関係性を深く知る貴重な機会として、装飾芸術に関心のある方におすすめの展覧会です。","10時 〜 18時 （入館は閉館の30分前まで）\\n11月21日（金）、22日（土）、28日（金）、29日（土）、12月5日（金）、6日（土）は夜間開館のため20:00まで開館（入館は閉館の30分前まで)",毎週月曜日、年末年始（12月28日 – 1月4日）\\n10月13日（月・祝）、11月3日（月・祝）、24日（月・祝）、1月12日（月・祝）は開館\\n10月14日（火）、11月4日（火）、11月25日（火）、1月13日（火）は休館　,"一般　1400円　大学生　1120円　高校生・65歳以上　700円","JR山手線「目黒駅」東口/東急目黒線「目黒駅」正面口より徒歩7分\\n都営三田線・東京メトロ南北線【白金台駅】1番出口より徒歩6分",35.636847,139.719403,"庭園・美術館"
"東京都写真美術館","〒153-0062 東京都目黒区三田1丁目13－3 恵比寿ガーデンプレイス内","東京","03-3280-0099","総合開館30周年記念　遠い窓へ　日本の新進作家 vol. 22","","/images/exhibition-image/1560030.jpg","https://topmuseum.jp/","https://topmuseum.jp/contents/exhibition/index-5087.html","2025年9月30日(火)","2026年1月7日(水)","東京都写真美術館が2002年から継続して開催している「日本の新進作家」展は、写真や映像の分野で創造性豊かな若手作家を紹介するシリーズ企画です。\\n第22回となる本展では、5名の現代作家を取り上げ、人・時代・風習・場所といった身の回りの要素から生まれる「小さな物語」に光を当てています。作家たちはそれぞれの視点で、私たちの日常や社会に潜む関係性や記憶をすくい上げ、作品として表現。異なる背景を持つ他者と向き合うための“想像力”を喚起する展示となっています。\\n現代を生きる私たちに問いかける静かな作品群から、多様な視点と新たな感性に触れてみてください。","10:00-18:00（木・金曜日は20:00まで）\\n入館は閉館時間の30分前まで","毎週月曜日（月曜日が祝休日の場合は開館し、翌平日休館）、年末年始及び臨時休館","一般 700（560）円／学生 560（440）円／高校生・65歳以上 350（280）円 　※（　）は有料入場者20名以上の団体料金、当館映画鑑賞券提示者および各種会員割引料金。※中学生以下および障害者手帳をお持ちの方とその介護者（2名まで）は無料","JR恵比寿駅東口より徒歩約7分\\n東京メトロ日比谷線恵比寿駅より徒歩約10分",35.641583,139.713197,"写真"
"東京都写真美術館","〒153-0062 東京都目黒区三田1丁目13－3 恵比寿ガーデンプレイス内","東京","03-3280-0099","総合開館30周年記念　ペドロ・コスタ　インナーヴィジョンズ","","/images/exhibition-image/1560030.jpg","https://topmuseum.jp/","https://topmuseum.jp/contents/exhibition/index-5093.html","2025年8月28日(木)","2025年12月7日(日)","東京都写真美術館にて、ポルトガルを代表する映画監督ペドロ・コスタの、日本初の大規模個展が開催されます。本展は、映像表現の枠を超え、美術館空間でコスタの作品世界を体感できる貴重な機会です。\\nコスタは、ポルトガルの都市リスボンで暮らすアフリカ系移民の人々や、社会の周縁で生きる者たちを長年にわたり描いてきました。代表作『ヴァンダの部屋』（2000）や『ホース・マネー』（2014）では、強い光と影のコントラスト、静かで張り詰めた映像美によって、過酷な現実を詩的に切り取っています。\\n今回の展覧会タイトル「インナーヴィジョンズ」は、彼が影響を受けたスティーヴィー・ワンダーの名盤に由来し、「音楽と映像」「社会と個人」といったテーマが交差する深い問いを投げかけます。\\n展示では、主要作品の映像インスタレーションに加え、東京都写真美術館の所蔵品も紹介。また会期中には、コスタ自らが選んだ映画作品の特別上映「カルトブランシュ」も実施予定です。\\n映像を通じて世界の複雑さや多様性を見つめ直す、静かで力強い展覧会です。","10:00-18:00（木・金曜日は20:00まで）\\n入館は閉館時間の30分前まで","毎週月曜日（月曜日が祝休日の場合は開館し、翌平日休館）、年末年始及び臨時休館","一般 800（640）円／学生 640（510）円／高校生・65歳以上400（320）円　※（　）は有料入場者20名以上の団体料金、当館映画鑑賞券提示者および各種会員割引料金。※中学生以下および障害者手帳をお持ちの方とその介護者（2名まで）は無料。","JR恵比寿駅東口より徒歩約7分\\n東京メトロ日比谷線恵比寿駅より徒歩約10分",35.641583,139.713197,"写真"
"上野の森美術館","〒110-0007 東京都台東区上野公園1-2","東京","03-3833-4191","正倉院 THE SHOW -感じる。いま、ここにある奇跡-","","/images/exhibition-image/1560030.jpg","https://www.ueno-mori.org/","https://www.ueno-mori.org/exhibitions/article.cgi?id=12292582","2025年9月20日(土)","2025年11月9日(日)","1300年もの時を超えて受け継がれてきた「正倉院」の宝物。その奇跡ともいえる保存状態の良さと、歴史的価値を、新しいアプローチで体験できる展覧会が開催されます。\\n本展では、宮内庁正倉院事務所が全面監修し、伝統工芸の匠たちが精巧に再現した「再現模造」と、映像・音楽・照明を駆使した最新のデジタル演出が融合。視覚や聴覚を通じて、宝物の本質に触れることができます。\\n古代の美と技術の粋を、現代の技術と感性で「感じ、楽しむ」体験ができる、新しい形の展覧会です。大阪・関西万博の機会にふさわしい、文化と革新が交差する注目の展示です。","10 : 00～17 : 00（入場は閉館30分前まで）","会期中無休\\n＊入場は閉館30分前まで"," 一般 2300（2100）、高校生・大学生 1700（1500）、小学生・中学生 1100（900）\\n＊（　）内は前売り金額：前売券 販売期間：8月2日（土）10:00～9月19日（金）23:59\\n未就学児無料\\n障がい者および介助者1名は当日料金の半額。当日チケット売場（窓口）にてご購入ください。","JR 上野駅公園口より徒歩3分\\n東京メトロ・京成電鉄上野駅より徒歩5分",35.712855,139.774761,"美術館"
"サントリー美術館","〒107-8643 東京都港区赤坂9丁目7－4 東京ミッドタウン　ガレリア　3階","東京","03-3479-8600","幕末土佐の天才絵師 絵金","©サントリー美術館","/images/exhibition-image/ekin_banner_3.jpg","https://www.suntory.co.jp/sma/","https://www.suntory.co.jp/sma/exhibition/2025_4/index.html","2025年9月10日(水)","2025年11月3日(月)","幕末から明治初期にかけて活躍した土佐出身の絵師・金蔵（通称：絵金）は、歌舞伎や浄瑠璃の物語を題材に、鮮やかな色彩で描かれた芝居絵屏風を多数制作しました。その独特な絵画世界は、現代の目で見ても強烈なインパクトを放ちます。\\n地元・高知では夏祭りの風物詩として今もなお神社や街角に飾られ、人々の暮らしと密接に結びついています。そのため「屏風より先に提灯を片付けた」と語られるように、絵金の作品は“生活の中の美”として長く親しまれてきました。\\n本展は、普段は神社や自治会などに所蔵され、なかなか一堂に観ることのできない絵金の芝居絵屏風を中心に紹介する貴重な機会です。サントリー美術館での初開催となる今回は、過去に巡回した大阪・鳥取を経て、東京での集大成として展開されます。\\n絵金の類まれな個性と表現力を、ぜひこの機会に体感してみてください。","10:00-18:00\\n金曜は20:00まで開館\\n※いずれも最終入館は閉館30分前まで","火曜日\\n9月23日、10月28日は18時まで開館","一般	¥1800\\n大学生　¥1200\\n高校生	¥1000	¥800\\n※中学生以下無料\\n※障害者手帳をお持ちの方は、ご本人と介助の方1名様のみ無料","都営地下鉄大江戸線　六本木駅出口8より直結\\n東京メトロ日比谷線　六本木駅より地下通路にて直結\\n東京メトロ千代田線　乃木坂駅出口3より徒歩約3分",35.666501,139.730239,"美術館"
"SOMPO美術館","160-0023 東京都新宿区西新宿1丁目26－1","東京","050-5541-8600","モーリス・ユトリロ展","","/images/exhibition-image/1560030.jpg","https://www.sompo-museum.org/","https://www.sompo-museum.org/exhibitions/2024/mauriceutrillo/","2025年9月20日(土)","2025年12月14日(日)","20世紀前半のパリを描いた風景画家、モーリス・ユトリロ（1883–1955）。彼は、芸術家の母シュザンヌ・ヴァラドンの影響を受けながら、アルコール依存症の治療として絵を描き始めました。モンマルトルや郊外の街並みを静かに見つめ、独自の世界を作り上げていきます。\\n今回の展覧会では、フランスのポンピドゥー・センター所蔵の代表作《ラパン・アジル》など約70点の作品と、ユトリロ協会の資料を通して、その画業の全体像を紹介。初期の「モンマニー時代」、白壁が印象的な「白の時代」、色鮮やかな「色彩の時代」まで、時代ごとの作風の変化をたどる構成となっています。\\nパリの街に潜む詩情を感じられる展覧会で、ユトリロが見た風景と、その心の旅路を体感してみてください。",10:00-18:00（金曜日は20：00まで）\\n※入館は閉館30分前まで,"月曜日（ただし10月13日、11月3日、11月24日は開館）、10月14日、11月4日、11月25日","一般（26歳以上）	1800円\\n25歳以下	1200円\\n小中高校生	無料\\n障がい者手帳をお持ちの方	無料","JR新宿駅西口から徒歩5分\\n東京メトロ新宿駅より徒歩5分\\n東京メトロ西新宿駅C13出口から徒歩6分\\n西武新宿線西新宿駅から徒歩7分\\n大江戸線都庁前駅A1出口から徒歩7分",35.692598,139.696478,"美術館"
"太田記念美術館","〒150-0001 東京都渋谷区神宮前1丁目10－10","東京","050-5541-8600","蔦屋重三郎と版元列伝","","/images/exhibition-image/1560030.jpg","https://www.sompo-museum.org/","https://www.ukiyoe-ota-muse.jp/tsutaya-juzaburo-and-the-chronicles-of-publishers/","2025年8月30日(土)","2025年11月3日(月)","2025年、大河ドラマ「べらぼう〜蔦重栄華乃夢噺〜」で話題となった江戸の名版元・蔦屋重三郎。その影響で、全国の美術館・博物館では浮世絵や江戸の出版文化に注目が集まっています。\\n太田記念美術館では、この秋、浮世絵の“裏方”である版元（出版者）たちに光を当てた特別展を開催。蔦重はもちろん、草創期から明治まで約230年にわたり活躍した12の代表的な版元たちを取り上げ、それぞれが持つ企画力や戦略を通して、浮世絵の発展の歴史をたどります。\\n華やかな絵師の作品の陰には、見る目と商才を兼ね備えた版元たちの存在がありました。浮世絵を支えた出版文化に迫る本展は、浮世絵専門の美術館だからこそ実現できた見どころ満載の内容です。","午前10時30分～午後5時30分（入館は午後5時まで）","毎週月曜日（祝日の場合は開館、翌日休館）\\n展示替え期間\\n年末年始","一般 1200円、大学生・高校生 800円、中学生以下 無料","JR山手線：原宿駅表参道口より徒歩5分\\n東京メトロ千代田線/副都心線：明治神宮前駅5番出口より徒歩3分",35.669358,139.70494,"美術館"
"東京国立博物館","〒110-8712 東京都台東区上野公園13－9","東京","050-5541-8600","特別展「運慶 祈りの空間―興福寺北円堂」","","/images/exhibition-image/1560030.jpg","https://www.tnm.jp/","https://www.tnm.jp/modules/r_free_page/index.php?id=2706","2025年9月9日(火)","2025年11月30日(日)","奈良・興福寺の北円堂は、鎌倉時代の名仏師・運慶による仏像群が今なお安置される、貴重な建築空間です。なかでも本尊の弥勒如来坐像と、その両脇に立つ無著・世親菩薩立像はいずれも国宝であり、運慶の晩年を代表する傑作として知られています。\\n通常は非公開の北円堂ですが、修理完了を記念して、弥勒如来坐像が約60年ぶりに寺外で公開されます。本展では、無著・世親菩薩像、そしてかつて北円堂に安置されていたとされる四天王立像を含む、国宝7体すべてを一堂に展示。まさに北円堂内陣の荘厳な空間を、展覧会場で再現する奇跡的な企画です。\\n鎌倉復興期の仏教美術の頂点とも言える、国宝仏像の迫力と静寂を、ぜひこの機会に体感してください。","	9時30分～17時00分\\n（入館は閉館の30分前まで）","	月曜日、10月14日（火）、11月4日（火）、11月25日（火）","本展は事前予約不要です。\\n一般 1700円\\n大学生 900円\\n高校生 600円\\n（注）中学生以下、障がい者とその介護者一名は無料です。入館の際に障がい者手帳などをご提示ください。","R上野駅公園口、または鶯谷駅南口下車　徒歩10分\\n東京メトロ　銀座線・\\n比谷線上野駅、千代田線根津駅下車　徒歩15分\\n京成電鉄　京成上野駅下車　徒歩15分\\n台東区循環バス「東西めぐりん」で「上野駅入谷口」もしくは「JR上野駅公園口」バス停から「上野公園経由・三崎坂往復ルート」のバスに乗車し、「東京国立博物館前」バス停下車。",35.718778,139.776344,"博物館"
"国立科学博物館","〒110-8718 東京都台東区上野公園7-20","東京","050-5541-8600","氷河期展　人類が見た4万年前の世界","","/images/exhibition-image/1560030.jpg","https://www.kahaku.go.jp/","https://hyogakiten.jp/","2025年7月12日(土)","2025年10月13日(月)","約4万年前、人類はマンモスなどの巨大動物たちとともに、現代よりもはるかに寒冷な氷河期を生きていました。本展では、当時の地球環境とそこに適応した動物たち、そしてネアンデルタール人やクロマニョン人といった初期の人類に焦点を当て、この時代を生き抜いた種と絶滅した種の違いに迫ります。\\n注目は、日本初公開となるネアンデルタール人とクロマニョン人の実物頭骨標本。また、会場ではマンモスやサーベルタイガーといった氷河期の巨大動物たちの圧倒的なスケール感を体感できます。\\n人類と動物たちの「生き残り」をかけた氷河期サバイバルの真実を、ぜひ会場でご覧ください。","9：00 ～17：00　　（入館は16：30 まで）\\n8月8日（金）～17日（日）および10月10日（金）～13日（月・祝）は19時閉館（入場は18時30分まで）。\\n※常設展示は8月9日(土)～15日(金)は18時まで。それ以外の期間、常設展示は17時まで（入場は各閉館時間の30分前まで）","7月14日（月）、9月1日（月）、8日（月）、16日（火）、22日（月）、29日（月）","一般・大学生	2300円\\n小・中・高校生	600円\\n※未就学児は無料。\\n障がい者手帳をお持ちの方とその介護者１名は無料。","R「上野」駅（公園口）から徒歩5分\\n東京メトロ銀座線・日比谷線「上野」駅（７番出口）から徒歩10分\\n京成線「京成上野」駅（正面口）から徒歩10分\\n館内に駐車場および駐輪場はございません",35.716383,139.776541,"博物館"
"横須賀美術館","〒239-0813 神奈川県横須賀市鴨居4丁目1","神奈川","046-822-4000","山本理顕展　コミュニティーと建築","","/images/exhibition-image/1560030.jpg","https://www.yokosuka-moa.jp/","https://www.yokosuka-moa.jp/archive/exhibition/2025/20250719-939.html","2025年7月10日(土)","2025年11月3日(月)","本展では、建築家・山本理顕（1945年生）の50年にわたる設計活動を、模型・図面・スケッチなど約60点を通して紹介します。\\n山本氏は、建築における「パブリック（公共）」と「プライベート（私的）」の関係性に注目し、その境界を“閾（しきい）”と呼びます。この「閾」の概念に基づき、個人と社会、住空間と地域を有機的につなぐ建築を提案し、国内外で高く評価されてきました。その功績が認められ、2024年には世界的建築賞であるプリツカー賞を受賞しました。\\n展覧会は、山本氏の代表作の一つである横須賀美術館を舞台に開催。彼の思想と空間設計を体感しながら学べる、過去最大規模の回顧展です。\\n建築に興味のある方はもちろん、暮らしや社会との関係に関心のある方にもおすすめの展示です。","10時～18時","８月４日（月）、９月１日（月）、10月６日（月）","一般2000（1600）円、大学生・65歳以上1000（800）円、高校生500（400）円、中学生以下無料\\n＊（　）内は20名以上の団体料金\\n＊高校生のうち、市内在住または在学の方は無料。\\n＊身体障害者手帳・療育手帳・精神障害者保健福祉手帳をお持ちの方と付添の方1名様は無料。","jR横須賀線利用の場合\\n「横須賀」駅3番乗り場から京急バス\\n「観音崎」行き（須24）「ラビスタ観音崎テラス・横須賀美術館前」（約35分）下車、徒歩約2分\\n車利用の場合\\n横浜横須賀道路馬堀海岸ICから3km (約5分)\\n横浜横須賀道路横須賀ICから11km(約35分)、本町山中有料道路を経て国道16号を東進",35.259795,139.738199,"美術館"
"箱根ガラスの森美術館","〒250-0631 神奈川県足柄下郡箱根町仙石原940－48","神奈川","0460-86-3111","軌跡のきらめき ～神秘の光彩、ガラスと貝細工～","","https://museum-search-app-theta.vercel.app/images/exhibition-image/1560030.jpg","https://www.hakone-garasunomori.jp/","https://www.hakone-garasunomori.jp/event/archive/exhibition_2025/","2025年7月18日(金)","2026年1月12日(月)","本展は、自然がもたらす神秘的な輝きに魅せられた職人たちの創作の歴史を、ガラス工芸と螺鈿（らでん）細工を中心にひも解く展覧会です。\\n虹色に変化した古代ガラスや、その美しさに触発されて生まれたラスター彩ガラス、ヴェネチアン・グラス、そして真珠層の輝きを活かした貝細工など、古代から現代まで約90点の作品が並びます。\\nどれも「色彩」や「光のきらめき」に焦点を当てた工芸品で、見る角度や光の加減によって表情が変わるのも魅力のひとつです。\\n自然の美にインスピレーションを受けた、人間の創造力の結晶をぜひご堪能ください。","午前10時から午後5時30分（ご入館は5時迄）","天候不良、交通事情等の影響により、開館時間の変更や休館となる場合があります。","一般1,800円 高大生1,300円 小中生600円（税込）","公共機関\\n東京駅［東海道新幹線］40分→小田原駅［箱根登山バス］（湖尻桃源台行）40分→箱根ガラスの森\\n新宿駅［小田急ロマンスカー］90分→箱根湯本駅［箱根登山バス］（湖尻桃源台行）25分→箱根ガラスの森\\n箱根湯本駅［箱根登山電車］40分→強羅駅［観光施設巡りバス］（S又はM路線）20分→箱根ガラスの森\\n自動車\\n東名御殿場I.Cから国道138号線で箱根方面へ約20分",35.266234,139.017738,"美術館"
"箱根ラリック美術館","〒250-0631 神奈川県足柄下郡箱根町仙石原186－1","神奈川","0460-84-2255","ルネ・ラリックのファッション図鑑","","/images/exhibition-image/1560030.jpg","https://www.lalique-museum.com/","https://www.lalique-museum.com/plan/%e3%83%95%e3%82%a1%e3%83%83%e3%82%b7%e3%83%a7%e3%83%b3%e5%9b%b3%e9%91%91%e5%b1%95/","2025年3月22日(土)","2025年11月30日(日)","アール・ヌーヴォーの巨匠ルネ・ラリック（1860–1945）は、ジュエリー作家としての名声だけでなく、飾り襟やバッグなど、幅広い“服飾品”のデザインでも知られています。本展では、そんなラリックの作品を「ファッション」という視点から紐解き、彼の創作が当時のモードとどのように結びついていたかを紹介します。\\n1900年のパリ万博でジュエリー部門を率いたラリックは、トップデザイナーのジャンヌ・パキャンらが牽引した、くびれたシルエットのドレスに調和する作品を多数制作しました。その後、1920年代にはアール・デコ様式が主流となり、ラリックもガラス製品に軸足を移しましたが、初期の服飾品はまさにアール・ヌーヴォーの精神を体現した名品ばかりです。\\n開館20周年を迎えた箱根ラリック美術館では、所蔵品の中から18点を厳選し、図鑑形式で紹介。さらに、ラリックの没後80年を記念して再現された当時のドレスと、その着装による展示も初公開されます。服飾と装飾芸術の融合を体感できる、貴重な展覧会です。","9:00-16:00（美術館入館は15：30まで）","毎月第３木曜日定休（但し８月は無休） ※臨時休館の場合あり、最新情報は公式ホームページをご覧ください。","大人 1500 円／大・高生・シニア（65 歳以上）1300 円／中学生・小学生 800 円","小田急線箱根登山鉄道箱根湯本駅東口より箱根登山バス（湖尻・桃源台行き）30分「仙石案内所前」下車徒歩すぐ\\nJR小田原駅東口より箱根登山バス（湖尻・桃源台行き）45分「仙石案内所前」下車徒歩すぐ",35.26967,139.009175,"美術館"
"ポーラ美術館","〒250-0631 神奈川県足柄下郡箱根町仙石原小塚山1285","神奈川","0460-84-2111","ゴッホ・インパクト─生成する情熱","","/images/exhibition-image/1560030.jpg","https://www.polamuseum.or.jp/","https://www.polamuseum.or.jp/sp/vangogh2025/","2025年5月31日(土)","2025年11月30日(日)","ポーラ美術館で、初めてフィンセント・ファン・ゴッホを特集する展覧会が開催されます。\\n独特のうねる筆致と鮮やかな色彩で知られるゴッホは、わずか37年の生涯の中で数多くの名作を生み出しました。その個性的な表現と激動の人生は、日本を含む世界中の人々に強い影響を与えてきました。\\n本展では、ゴッホの芸術が20世紀以降の文化や社会にどのような影響を与えてきたのかを紹介するとともに、現代に生きる私たちにとって「ゴッホ」という存在が持つ意味や価値を問い直します。","午前9時～午後5時（入館は午後4時30分まで）","会期中無休","大人（シニア含む）2200円\\n大学・高校生1700円\\n中学生以下は入館無料。小・中学生（無料）、大学・高校生価格でのご入館の際は、必ず学生証または年齢がわかる身分証明書等のご提示が必要になります。\\n障害者手帳をお持ちのご本人及び付添者（1名まで）はご来館当日、障害者手帳のご提示で1100円。本サイトでのご購入は不要です。","東京駅から\\n東海道新幹線こだま号で「小田原駅」下車（約35分）、「小田原駅」で箱根登山線に乗り換え「箱根湯本駅」下車（約15分）、「箱根湯本駅」で乗り換え箱根登山電車「強羅駅」下車（約40分）、「強羅駅」からポーラ美術館無料送迎バス（約8分）\\n小田急新宿駅から\\n「小田原駅」で箱根登山線に乗り換え「箱根湯本駅」下車（約15分）、「箱根湯本駅」で乗り換え箱根登山電車「強羅駅」下車（約40分）、「強羅駅」からポーラ美術館無料送迎バス（約8分）",35.256741,139.021269,"美術館"
"千葉市美術館","〒260-0013 千葉県千葉市中央区中央3丁目10－8","千葉","043-221-2311","未来／追想　千葉市美術館と現代美術","","/images/exhibition-image/1560030.jpg","https://www.ccma-net.jp/","https://www.ccma-net.jp/exhibitions/special/25-8-2-10-19/","2025年8月2日(土)","2025年10月19日(日)","2025年で開館30周年を迎える千葉市美術館では、記念展「未来／追想　千葉市美術館と現代美術」が開催されます。本展では、1991年の建設着工以降に収集された現代美術作品から、約180点を厳選。戦後の美術がどのように発展し、多様な表現を生んできたのかをたどる内容となっています。\\n千葉市美術館は、近世から現代まで、また房総ゆかりの作品まで幅広く所蔵しており、その独自性と質の高さで知られています。開館以来、現代美術にも注力しており、これまでに120以上の関連展を開催してきました。\\n今回の展覧会では、過去30年にわたる活動の軌跡を振り返るとともに、美術館の理念である「人・まち・未来づくり」の精神に基づき、これからの文化芸術の可能性を探ります。過去と未来が交差するこの展覧会は、アートと社会のつながりを考えるまたとない機会です。","10:00 – 18:00 （金・土曜日は、20:00まで）\\n※入場受付は閉館の30分前まで","月曜日（祝日の場合は翌平日）","	一般1500円（1200円）、大学生1000円（800円）、小・中学生、高校生無料\\n※障害者手帳をお持ちの方とその介護者1名は無料\\n※( )内は前売券、団体20名以上、および市内在住65歳以上の料金","JR千葉駅東口から徒歩15分\\n京成千葉中央東口から徒歩約10分",35.609021,140.12466,"美術館"
"千葉市美術館","〒260-0013 千葉県千葉市中央区中央3丁目10－8","千葉","043-221-2311","千葉美術散歩","","/images/exhibition-image/1560030.jpg","https://www.ccma-net.jp/","https://www.ccma-net.jp/exhibitions/special/25-11-1-26-1-8/","2025年11月1日(土)","2026年1月8日(木)","千葉市美術館では、開館30周年を記念し、「場（ば）」をテーマにした特別展を開催中です。会場では、明治から現代にかけての千葉にゆかりのある場所と芸術家たちに焦点をあて、その土地ならではのアートの系譜を紹介しています。\\n展覧会に登場するのは、旧制千葉中学校で絵画指導を行った堀江正章、風刺画家ビゴーが滞在した稲毛、孤高の画家・田中一村が暮らした千葉寺町、戦後の千葉アートシーンを支えた国松画廊など、それぞれの「場」が生んだ芸術と作家たちです。\\nこの展覧会は、土地と芸術の深いつながりを通して、美術館が「記憶と未来をつなぐ場所」であることを感じさせてくれます。地域の歴史や文化に根ざしたアートを通じて、千葉という都市の新たな魅力を再発見できる貴重な機会です。","10:00 – 18:00 （金・土曜日は、20:00まで）\\n※入場受付は閉館の30分前まで","月曜日（祝日の場合は翌平日）","一般1200円（960円）、大学生700円（560円）、小・中学生、高校生無料\\n※障害者手帳をお持ちの方とその介護者1名は無料\\n※( )内は前売券、団体20名以上、および市内在住65歳以上の料金","JR千葉駅東口から徒歩15分\\n京成千葉中央東口から徒歩約10分",35.609021,140.12466,"美術館"
"ホキ美術館","〒267-0067 千葉県千葉市緑区あすみが丘東3丁目15","千葉","043-205-1500","Sereneの写実　森本草介・島村信之2人展","©ホキ美術館","/images/exhibition-image/serene.png","https://www.hoki-museum.info/","https://www.hoki-museum.jp/special_exhibition/serene_reality/","2025年5月28日(水)","2025年11月10日(月)","森本草介と島村信之は、ホキ美術館が設立した頃から 作品が所蔵されている作家です。\\n薄塗りのフラットな絵肌、穏やかな風景画や、柔らかな光の表現の人物画…共通点も多い2人の作家ですが、その作品を前にしていると時折、自分の周りが静けさに包まれるような、見ている自分が静かな空間に入り込ん だような、不思議な感覚を覚えることがあります。\\n今回の企画展では、森本草介がかつて友人から作品を ”Sereneな絵” と評されたという話から ”Serene” を展示タイトルに冠し、ホキ美術館が選ぶ ”静” を感じる作家2人による作品をギャラリー1で展示いたします。\\nぜひ実際に作品と対面して、”Sereneな絵” を感じてみてください。","午前10時～午後5時30分\\n入館受付は閉館時間の30分前の午後5時まで","火曜日\\n※火曜日が祝日の場合は開館、翌平日に休館\\n年末年始\\n展示替え期間","一般　2100円（障害者手帳などをお持ちの方　1050円）\\n65歳以上・高校生・大学生　1600円（障害者手帳などをお持ちの方　800円）\\n中学生　1000円（障害者手帳などをお持ちの方　500円）\\n小学生以下　800円（障害者手帳などをお持ちの方　400円）\\n※保護者1人につき小学生2名まで無料","東京駅→JR外房線「土気（とけ）駅」（70分）→京成バス千葉イースト（旧：千葉中央バス）土気駅南口3番乗り場より「ブランニューモール」行き乗車→「あすみが丘東4丁目」下車し徒歩1分",35.522072,140.279979,"美術館"
"埼玉県立近代美術館","〒330-0061 埼玉県さいたま市浦和区常盤9丁目30－1","埼玉","048-824-0111","Nerhol 種蒔きと烏 Misreading Righteousness","","/images/exhibition-image/1560030.jpg","https://pref.spec.ed.jp/momas/","https://pref.spec.ed.jp/momas/2025nerhol","2025年7月12日(土)","2025年10月13日(月)","グラフィックデザイナー田中義久と彫刻家飯田竜太によるアーティストデュオ「Nerhol」による最新展覧会です。人物写真の束に彫刻を施したユニークな作品で注目を集めた彼らは、写真と彫刻の枠を超えて、環境や社会、可視・不可視といった複雑なテーマに挑んできました。\\n本展では、前回の大規模個展「水平線を捲る」（2024年・千葉市美術館）に続き、未発表作を含む約80点を展示。タイトル「種蒔きと烏」には、一つの行為が「正しさ」と「誤り」の両面を持つという視点が込められています。見る側の解釈を揺さぶり、日常の見方に新たな気づきをもたらす展覧会です。","10:00～17:30 （展示室への入場は17:00まで）","月曜日（ただし、7月21日、8月11日、9月15日、10月13日は開館）","一般1400円（1120円）、大高生1120円（900円）//n※(　) 内は20名以上の団体料金//n※中学生以下は無料\\n※障害者手帳等をご提示の方 (付き添いの方1名を含む) は無料","JR京浜東北線北浦和駅西口より徒歩3分（北浦和公園内）\\nJR東京駅、新宿駅から北浦和駅まで、それぞれ約35分",35.869767,139.643207,"美術館"
"川越市立美術館","〒350-0053 埼玉県川越市郭町2丁目30－1","埼玉","049-228-8080","〈小江戸文化シリーズ〉6　勝田蕉琴展","","/images/exhibition-image/1560030.jpg","https://www.city.kawagoe.saitama.jp/artmuseum/index.html","https://www.city.kawagoe.saitama.jp/artmuseum/tenrankai/1013563/1017257.html","2025年10月25日(土)","2025年12月7日(日)","明治から昭和にかけて活躍した日本画家・勝田蕉琴（1879–1963）は、福島県棚倉町の出身です。岡倉天心の推薦を受けて、近代インド美術の中心地であるカルカッタの美術学校で教鞭をとった経歴を持ち、帰国後は帝展（帝国美術院展覧会）をはじめとする官展で実力を発揮しました。\\m蕉琴は、日本画の伝統を重んじながらも異文化での経験を作品に活かし、東洋的な感性と国際的な視野を融合させた独自の表現を築きました。\\nまた、彼の父が仕えていた松平周防守家が幕末期に川越藩主となった経緯もあり、蕉琴自身も川越と深い縁を持っています。そうした背景から、川越ゆかりの日本画家としても紹介されています。\\n本展では、蕉琴の多彩な画業を通じて、近代日本画の展開とその国際的広がりにふれる貴重な機会となっています。","午前9時から午後5時まで(入場は午後4時30分まで)","月曜日(休日の場合は翌火曜日) 年末年始　特別整理期間","一般　700円（560円） 大学生・高校生　350円（280円） 中学生以下　無料\\n（　）内は20人以上の団体料金。","「川越駅」東口7番バス乗り場　東武バス・川越06系統「川越運動公園/埼玉医大総合医療センター/上尾駅西口」行きに乗車　川越市役所で下車し徒歩5分\\n「川越駅」東口1・2・4・5・6番バス乗り場　東武バス・川越01、02、03、04、09、若02、東坂02系統「蔵のまち」経由に乗車　札の辻で下車し徒歩8分",35.925591,139.490859,"美術館"
"さいたま市大宮盆栽美術館","〒331-0804 埼玉県さいたま市北区土呂町2丁目24－3","埼玉","048-780-2091","緑のフロンティア ー大宮盆栽村100年ー","©さいたま市大宮盆栽美術館","/images/exhibition-image/大宮盆栽村.png","https://www.bonsai-art-museum.jp/ja/","https://www.bonsai-art-museum.jp/ja/exhibition/exhibition-10729/","2025年10月3日(金)","2025年12月10日(水)","1923年の関東大震災後、東京から移り住んだ盆栽師たちが武蔵野台地を開拓して誕生した「大宮盆栽村」。その始まりは1925年（大正14年）、清大園の清水利太郎が最初の住人となったことにさかのぼります。\\n本展では、100年の歩みを振り返りながら、盆栽村の歴史と文化を紹介。地図や観光パンフレット、古写真など貴重な資料を通じて、東京時代から続く盆栽園の発展の軌跡をたどります。\\nさらに、各盆栽園から借用した盆栽の展示では、園ごとの個性豊かな作品を鑑賞できるほか、当時の人々の姿を収めたアーカイブ映像も上映。盆栽を愛した人々の精神や地域の文化が、現代にどのようにつながっているのかを感じ取れる内容となっています。","(3月～10月）午前9時～午後4時30分 ※入館は午後4時まで\\n（11月～2月）午前9時～午後4時　※入館は午後3時30分まで","木曜日（祝日の場合は開館）\\n年末年始、臨時休館日あり","一般 310円（200円）\\n高大生・65歳以上 150円（100円）／ 小中学生 100円（50円）\\n※障害者手帳をお持ちの方と、付き添いの方1名は半額","JR宇都宮線「土呂駅」下車　東口より徒歩5分\\n東武アーバンパークライン「大宮公園駅」下車　徒歩10分",35.928796,139.633274,"美術館"
"国立国際美術館","〒530-0005 大阪府大阪市北区中之島4丁目2－55 国立国際美術館","大阪","06-6447-4680","非常の常","","/images/exhibition-image/1560030.jpg","https://www.nmao.go.jp/","https://www.nmao.go.jp/events/event/20250628_hijou-no-jou/","2025年6月28日(土)","2025年10月5日(日)","気候災害、戦争、パンデミック、そして生成AIの登場による情報の混乱──私たちは、日常のすぐ隣に「非常事態」がある現代を生きています。これらの出来事は、住む場所や人とのつながり、日常そのものを脅かし、生き方そのものを問い直す状況をつくり出しています。\\n本展では、そうした不安定な時代を背景に、8名の作家たちが見つめる現代の姿を紹介。混乱の中にある個人の感情、テクノロジーと向き合うまなざし、そして未来に向けた想像力を、それぞれの表現を通して探ります。\\n「非常の常」の中で、私たちはどのように希望を持ち、進んでいけるのか──作品を通じてその問いに触れてみてください。","10:00 – 17:00　入場は16:30まで\\n毎週金・土曜日　10:00 – 20:00　入場は19:30まで\\n※開館時間は臨時に変更する場合があります。","月曜日（ただし7月21日、8月11日、9月15日は開館）、7月22日、8月12日、9月16日","一般　1500円（1300円）	大学生	900円（800円）\\n※（　）内は20名以上の団体料金および夜間割引料金（対象時間：金曜・土曜の17:00 – 20:00）\\n※高校生以下・18歳未満無料（要証明）\\n※心身に障がいのある方とその付添者1名は無料（要証明）","京阪\\n中之島線「渡辺橋駅」2番出口より南西へ徒歩約5分\\n淀屋橋駅［7番出口］より土佐堀川を越え西へ徒歩約15分\\nOsaka Metro\\n四つ橋線「肥後橋駅」3番出口より西へ徒歩約10分\\n御堂筋線 淀屋橋駅［7番出口］より土佐堀川を越え西へ徒歩約15分\\nJR\\n新福島駅［2番出口］より南へ徒歩約10分\\n大阪環状線 福島駅より南へ徒歩約15分\\n大阪駅より南西へ徒歩約20分",34.691821,135.491977,"美術館"
"国立国際美術館","〒530-0005 大阪府大阪市北区中之島4丁目2－55 国立国際美術館","大阪","06-6447-4680","プラカードのために","","/images/exhibition-image/1560030.jpg","https://www.nmao.go.jp/","https://www.nmao.go.jp/events/event/20251101_for-a-placard/","2025年11月1日(土)","2026年2月15日(日)","紙や板に書かれた一言が、人々の心を動かし、社会に問いを投げかける。プラカードというシンプルな表現手段は、時に現実への抵抗や希望の象徴となります。\\n本展は、1961年に美術家・田部光子が綴った文章「プラカードの為に」から着想を得て、「生きること」や「尊厳」をテーマに活動してきた7名の作家による作品を紹介。日常の中で芽生える思いや、声なき声をすくい取った表現を通じて、個人が社会とどう向き合い、発信していけるのかを考えます。\\n声をあげること、掲げることの力を、静かに、しかし力強く感じられる展示です。","10:00 – 17:00　入場は16:30まで\\n毎週金・土曜日　10:00 – 20:00　入場は19:30まで\\n※開館時間は臨時に変更する場合があります。","月曜日（ただし11月3日、11月24日、1月12日は開館）、11月4日、11月25日、1月13日、年末年始（12月28日-1月5日）","一般　1500円（1300円）	大学生	900円（800円）\\n※（　）内は20名以上の団体料金および夜間割引料金（対象時間：金曜・土曜の17:00 – 20:00）\\n※高校生以下・18歳未満無料（要証明）\\n※心身に障がいのある方とその付添者1名は無料（要証明）","京阪\\n中之島線「渡辺橋駅」2番出口より南西へ徒歩約5分\\n淀屋橋駅［7番出口］より土佐堀川を越え西へ徒歩約15分\\nOsaka Metro\\n四つ橋線「肥後橋駅」3番出口より西へ徒歩約10分\\n御堂筋線 淀屋橋駅［7番出口］より土佐堀川を越え西へ徒歩約15分\\nJR\\n新福島駅［2番出口］より南へ徒歩約10分\\n大阪環状線 福島駅より南へ徒歩約15分\\n大阪駅より南西へ徒歩約20分",34.691821,135.491977,"美術館"
"大阪中之島美術館","〒530-0005 大阪府大阪市北区中之島4丁目3－1","大阪","06-6479-0550","小出楢󠄀重　新しき油絵","","/images/exhibition-image/1560030.jpg","https://nakka-art.jp/","https://nakka-art.jp/exhibition-post/koide-2025/","2025年9月13日(土)","2025年11月24日(月)","大阪出身の近代洋画家・小出楢重（1887–1931）による25年ぶりの回顧展です。日本人による油彩表現の可能性を追求した小出は、静物画や裸婦像を通して独自の世界観を築き、「裸婦の楢重」とも称されました。とくに晩年の芦屋時代に描かれた裸体像では、大胆なデフォルメと艶やかな色彩で、日本女性の美を力強く表現しています。\\n本展では、初期から晩年までの代表的な油彩画を中心に、素描やガラス絵、装幀・挿絵、随筆など、小出の多彩な創作活動にも焦点を当て、その芸術世界を幅広く紹介します。近代日本絵画の発展に貢献した画家の歩みをたどる貴重な機会です。","10:00 – 17:00（入場は16:30まで）＊9/13（土）、9/14（日）のみ10:00 – 19:00（入場は18:30まで）","月曜日、10/14（火）、11/4（火）\\n＊9/15（月・祝）、10/13（月・祝）、11/3（月・祝）、11/24（月・休）は開館","一般　　1700円（団体 1500円）\\n高大生　1200円（団体 1000円）\\n中学生以下　無料\\n＊障がい者手帳（身体障がい者手帳、療育手帳、精神障がい者保健福祉手帳）をお持ちの方（介護者1名を含む）は、当日料金の半額（要証明）。","京阪 中之島線 渡辺橋駅（2番出口）より南西へ徒歩約5分 淀屋橋駅（7番出口）より土佐堀川を越え西へ徒歩約15分\\nOsaka Metro 四つ橋線 肥後橋駅（4番出口）より西へ徒歩約10分 御堂筋線 淀屋橋駅（7番出口）より土佐堀川を越え西へ徒歩約15分\\nJR 大阪環状線 福島駅／東西線 新福島駅（2番出口）より南へ徒歩約10分 大阪駅より南西へ徒歩約20分\\n阪神 福島駅より南へ徒歩約10分 大阪梅田駅より南西へ徒歩約15分\\n阪急 大阪梅田駅より南西へ徒歩約20分",34.692453,135.491386,"美術館"
"京都市京セラ美術館","〒606-8344 京都府京都市左京区岡崎円勝寺町124","京都","075-771-4334","どこ見る？どう見る？西洋絵画！  ルネサンスから印象派まで","","/images/exhibition-image/1560030.jpg","https://kyotocity-kyocera.museum/","https://kyotocity-kyocera.museum/exhibition/20250625-20251013-2","2025年6月25日(水)","2025年10月13日(月)","本展では、アメリカ・サンディエゴ美術館の貴重な所蔵作品を中心に、国立西洋美術館の名作も加えながら、「西洋絵画の見方・楽しみ方」に焦点を当てた新しい鑑賞体験を提案します。\\nジョルジョーネやサンチェス・コターンなど、日本初公開となる世界的名画が多数登場。ルネサンスから19世紀末までの約600年にわたる西洋美術の流れをたどりながら、「どこを見たら面白い？」「どう読み解けばいい？」といった視点が提示され、観る楽しさが広がる構成になっています。\\n美術に詳しくない方でも、自分なりの「見どころ＝どこみる？」を発見できるよう工夫されており、絵画との距離をぐっと縮めてくれる展覧会です。","10:00-18:00(最終入場時間は展来会により異なります)","月曜日（ただし、祝日の場合は開館）","一般：2200円（2000円） 大学生・高校生：1400円（1200円） 中校生・小学生：900円（700円）\\n※未就学児無料\\n※学生料金でご入場の際には学生証をご提示ください（小学生除く）\\n※（　）内は前売、20名以上の団体料金\\n※障害者手帳等ご提示の方は本人及び介護者1名無料（障害者手帳等確認できるものをご持参ください）\\n※価格はすべて税込み","地下鉄東西線「東山駅」より徒歩約8分 京阪「三条駅」・地下鉄東西線「三条京阪駅」より徒歩約16分",35.012938,135.78359,"美術館"
"京都国立近代美術館","〒606-8344 京都府京都市左京区岡崎円勝寺町26－1","京都","075-761-4111","没後50年 堂本印象 自在なる創造","©京都国立近代美術館","/images/exhibition-image/doumotoinsyou.jpg","https://www.momak.go.jp/","https://www.momak.go.jp/Japanese/exhibitionarchive/2025/464.html","2025年10月7日(火)","2025年11月24日(月)","近代日本画の巨匠・堂本印象（1891–1975）の没後50年を記念した大規模回顧展です。京都画壇を代表する存在として活躍した堂本は、初期には緻密で格調高い具象画を描き、帝展などの官展で数々の受賞を重ねました。その後60歳を過ぎてから渡欧し、抽象表現へと大胆に転じたことで知られます。\\n本展では、《深草》《調鞠図》《華厳》といった初期の名作から、躍動的な筆致で描かれた晩年の抽象画まで、画風の変遷をたどる代表作が一堂に会します。伝統と革新を往還しながら、自身の芸術を深めていった堂本印象の創作の軌跡に触れられる貴重な機会です。","午前10時～午後6時（入館は午後5時30分まで） 毎週金曜日は午後8時（入館は午後7時30分）まで","月曜日（ただし、10月13日（月・祝）、11月3日（月・祝）、11月24日（月・休）は開館）、10月14日（火）、11月4日（火）","一般：1500円（1300円）大学生：700円（600円）\\n※（）内は前売と20名以上の団体及び夜間割引（金曜午後6時以降）\\n※高校生以下・18歳未満は無料。\\n※心身に障がいのある方と付添者1名は無料。\\n※ひとり親家庭の世帯員の方は無料。","JR・近鉄京都駅前（A1のりば）から市バス5番 銀閣寺・岩倉行「岡崎公園 美術館・平安神宮前」下車すぐ\\n市バス105番 平安神宮･銀閣寺行「岡崎公園 美術館・平安神宮前」下車すぐ（105番は土曜日・休日のみ運行）\\nJR・近鉄京都駅前（B3のりば）から市バス86番 清水寺 祇園・平安神宮行「岡崎公園 美術館・平安神宮前」下車すぐ\\n阪急烏丸駅・京都河原町駅、京阪三条駅から市バス5番 銀閣寺・岩倉行「岡崎公園 美術館・平安神宮前」下車すぐ",35.012371,135.781955,"美術館"
"兵庫県立美術館","〒651-0073 兵庫県神戸市中央区脇浜海岸通1丁目1－1","兵庫","078-262-1011","リビング・モダニティ 住まいの実験1920s-1970s","","/images/exhibition-image/1560030.jpg","https://www.artm.pref.hyogo.jp/","https://www.artm.pref.hyogo.jp/exhibition/t_2509/index.html","2025年9月20日(土)","2026年1月4日(日)","「リビング・モダニティ　住まいの実験 1920s－1970s」展は、20世紀のモダン・ハウスに焦点を当てた建築展です。ル・コルビュジエやミース・ファン・デル・ローエといった近代建築の巨匠たちが提案した、機能性と快適性、さらには芸術性を兼ね備えた“理想の住まい”を紹介します。\\n展示では、1920年代から70年代にかけて設計された14の住宅を中心に、衛生・素材・窓・キッチン・調度品・メディア・ランドスケープという7つのテーマで構成。これらの住宅は、当時の技術革新だけでなく、地域性や家族構成、住む人の個性までも反映した実験的な空間であり、今なお私たちの住まいの在り方に影響を与えています。\\n写真や図面、模型、家具、テキスタイルなど多様な資料を通して、20世紀の住宅建築がもたらした生活の革新を、視覚的かつ多角的に体感できる展覧会です。","10:00～18:00（入場は17:30まで）","月曜日 ただし、10月13日[月・祝]、11月3日[月・祝]、11月24日[月・振休]は開館、10月14日[火]、11月4日[火]、11月25日[火]、12月31日[水]、1月1日[木]は休館","一般　1800円　大学生　1000円　高校生以下　無料　70歳以上　900円　障害者手帳等お持ちの方 (一般)　450円　障害者手帳等お持ちの方 (大学生)　250円","JR：神戸線灘駅南口から南へ徒歩約10分\\n阪神電車：岩屋駅（兵庫県立美術館前）から南へ徒歩約8分\\n阪急電車：神戸線王子公園駅西口から南西へ徒歩約20分",34.69916,135.217699,"美術館"
"奈良県立美術館","〒630-8213 奈良県奈良市登大路町10－6","奈良","0742-23-3968","奈良ゆかりの現代作家展　安藤榮作　ー約束の船ー","©奈良県立美術館","/images/exhibition-image/andoueisaku.jpg","https://www.pref.nara.jp/11842.htm","https://www.pref.nara.jp/69828.htm","2025年9月13日(土)","2025年11月16日(日)","奈良県天理市を拠点に活動する彫刻家・安藤榮作による展覧会です。安藤は2011年、東日本大震災で福島県いわき市の自宅やアトリエを失い、原発事故を契機に奈良へ移住しました。それ以降、吉野のヒノキをはじめとする奈良の木材や廃材を用い、手斧で刻み込む独自の木彫を続けています。\\n本展では、震災後から約15年間に制作された作品の中から、《鳳凰》（2016年）、《福島原発爆発ドローイング》(2013–2019)といった代表作に加え、新作インスタレーション《約束の船.2025》を公開。木を素材とした力強い表現を通じて、自然や土地の記憶、そして人々の魂への眼差しを感じられる内容となっています。","午前9時～午後5時　入館は4時30分まで","月曜日（祝日の場合は翌平日） 年末年始　展示替期間中","未定","近鉄・奈良駅／1番出口から徒歩5分\\nJR・奈良駅／東口バス乗り場から奈良交通バス「県庁前」下車",34.685889,135.832656,"美術館"
"北海道立近代美術館","〒060-0001 北海道札幌市中央区北1条西17丁目","北海道","011-644-6881","【近美コレクション】1945-2025　美術は何を記憶しているか","","/images/exhibition-image/1560030.jpg","https://artmuseum.pref.hokkaido.lg.jp/knb","https://artmuseum.pref.hokkaido.lg.jp/knb/exhibition/program/257","2025年7月19日(土)","2025年11月24日(月)","2025年は、第二次世界大戦の終結から80年という節目の年です。この80年間、日本と世界は急激な変化を経験し、社会情勢や人々の価値観は大きく揺れ動いてきました。こうした激動の時代の中で、美術は単なる表現手段にとどまらず、戦争、復興、経済成長、災害、テクノロジーの進化など、社会の出来事と密接に関わりながら発展してきました。\\n本展では、美術がどのようにその時代の「記憶」を表し、あるいは問いかけてきたのかをひもときながら、戦後から現代に至る日本の社会と美術の歩みを振り返ります。絵画、彫刻、映像、インスタレーションなど、多様な表現を通して、私たちがどのような時代を生き、どんな思いを継いできたのかを再考する機会となるでしょう。","9:30 -17:00（入場は16:30まで）\\n2025.8.22から9.5までの金曜日は、夜間開館のため9:30-19:30（入場は19:00まで）\\n7.25のカルチャーナイトは、9:30-21:00（入場は20:30まで）","月曜日（月曜日が祝日または振替休日のときは開館、翌平日は休館。11.4は芸術週間のため開館）\\n年末年始（12.29-1.3）\\n展示替期間等","一般 510円、大学生・高校生 250円、65歳以上・中学生以下・障害者手帳提示と付き添い1名 無料","「地下鉄西18丁目駅」4番出口から徒歩約5分",43.060166,141.330274,"美術館"
"十和田市現代美術館","〒034-0082 青森県十和田市西二番町10－9","青森","0176-20-1127","エルヴィン・ヴルム 人のかたち","©十和田市現代美術館","/images/exhibition-image/Erwin.png","https://towadaartcenter.com/","https://towadaartcenter.com/exhibitions/erwin_wurm/","2025年4月12日(土)","2025年11月16日(日)","2025年4月12日から11月16日まで、オーストリアの現代アーティスト、エルヴィン・ヴルムの日本初個展が十和田市現代美術館で開催されます。ヴルムは、彫刻を起点としながらも、写真・映像・絵画など多様なメディアを用いて、伝統的な「彫刻」という枠組みを大胆に超える作品を生み出してきた作家です。\\n彼の作品の特徴は、ユーモラスで風刺的な表現を通じて、日常に潜む社会のルールや制度、権力のあり方に疑問を投げかける点にあります。本展では、歪んだ教室空間に「古びた教材」が掲示され、教育制度のもつ「正しさ」や「常識」を問い直す《学校》が初公開されます。また、奇妙なポーズの司祭や修道女を撮影したシリーズや、「皮膚」「平らな彫刻」といった最新シリーズも紹介され、多様なアプローチから作品世界が展開されます。\\nなお、ヴルムの代表作《ファット・ハウス》《ファット・カー》の常設展示は国内で十和田市現代美術館だけであり、本展は彼の活動の全貌を体感できる貴重な機会となるでしょう。現代美術の視点から「当たり前」を見つめ直すきっかけとして、ぜひ訪れてみてください。","9:00 – 17:00（最終入館 16:30）","月曜日（月曜日が祝日の場合は、その翌日） 、 年末年始\\n※イベントや工事、メンテナンス等で臨時休館することがあります。","一般 ： 1800円(常設展含む)、高校生以下無料","十和田観光電鉄バス「八戸駅」東口5番から「本町東」行き。「官庁街通」バス停下車（所要時間 約60分）、美術館まで徒歩5分。\\n十和田観光電鉄バス「七戸十和田駅」南口2番から「三本木営業所」行き。「十和田市現代美術館前」下車（所要時間 約35分）。",40.614095,141.209115,"美術館"
"秋田県立美術館","〒010-0001 秋田県秋田市中通1丁目4－2","秋田","018-853-8686","巨匠たちのパレット展","","/images/exhibition-image/1560030.jpg","https://www.akita-museum-of-art.jp/index.htm","https://www.akita-museum-of-art.jp/event/show_detail.php?serial_no=450","2025年9月13日(土)","2025年11月9日(日)","普段は作品の裏側に隠れ、あまり目にすることのない画家の道具「パレット」。絵具を混ぜ、色を作り出すこの画材には、画家の個性や色彩感覚、そして創作への姿勢が如実に表れています。本展では、絵画とともにパレットそのものに着目し、作家たちの創作の舞台裏を可視化します。\\n展示の中心は、笠間日動美術館（茨城県）所蔵の貴重なコレクション。梅原龍三郎、東郷青児、宮本三郎といった日本洋画の巨匠から、ピカソ、マティス、ダリといった世界的な作家たちまで、実際に使用したパレットとその作品が並びます。\\n一つひとつのパレットには、色彩の配置や筆跡、使い込まれた痕跡が残されており、それらはまるで作家の「思考の地図」。中には、本人を象徴するモチーフが描かれているものもあり、まさに作品と一体となった創作の記録といえます。\\n絵そのものだけでは見えてこない、画家たちの手の動きや色へのこだわり、感性の源を読み取ることができる本展。アトリエの空気を感じながら、名画の誕生に秘められた物語をじっくりとお楽しみください。","午前10時から午後6時（最終入館は午後5時30分）","不定休（ただしメンテナンスなどで臨時に休館になる場合がありますので事前にご確認の上お越しください。）","一般／1000(800)円　高・大学生／800(600)円　中学生以下無料\\n※（ ）内は20名以上の団体、前売券の料金\\n※高・大学生は要学生証提示\\n※障がい者手帳・療育手帳・精神障がい者保健福祉手帳持参の方と付添1名は半額（ミライロID可）。美術館での当日券販売のみ","JR秋田駅より徒歩10分",39.717552,140.121659,"美術館"
"岩手県立美術館","〒020-0866 岩手県盛岡市本宮松幅12-3","岩手","019-658-1711","澤田哲郎展","","/images/exhibition-image/1560030.jpg","https://www.ima.or.jp/","https://www.ima.or.jp/exhibition/temporary/20251015.html","2025年10月15日(水)","2025年11月30日(日)","盛岡市出身の画家・**澤田哲郎（さわだ てつろう）**は、およそ半世紀にわたる創作の中で、具象画から抽象画、そして幻想的な絵画へと作風を大胆に変化させながら、独自の世界観を追求し続けた異色の画家です。\\n本展では、澤田の初期の具象的な風景画・人物画から、後期のサムホール（小型キャンバス）に描かれた幻想的で繊細な作品までを一堂に展示。変遷する作風を時系列でたどることで、澤田が「表現すること」と常に格闘し続けたその軌跡を感じ取ることができます。\\n澤田の作品は、単なる技法の変化にとどまらず、その時代ごとに異なる精神性や哲学的な思索が色濃く反映されています。モチーフや構図、色彩の選び方などに、画家の内面が巧みに投影されており、観る者に多様な感情や想像を喚起します。\\n作品ごとに変貌する画風を通して、澤田哲郎という一人の画家が何を見つめ、何を描こうとしたのか——その深層に触れる貴重な機会です。変化を恐れず挑戦し続けた彼の**「絵を描くこと」の真髄**に、ぜひ触れてみてください。","開館時間：9:30〜18:00（入館は17:30まで）","月曜日（11月3日、11月24日は開館）、11月4日、11月25日","[一般] 前売800円（当日1000円）\\n[高校生・学生] 前売500円（当日600円）\\n[小学生・中学生] 前売300円（当日400円）\\n＊当日券の販売は当館のみです。\\n＊当日券をお買い求めの際、次の割引があります。\\n・20名以上の団体は前売料金と同額\\n・療育手帳、身体障害者手帳、精神障害者保健福祉手帳をご提示の方、およびその付き添いの方1名は半額","盛岡駅東口より岩手県交通バス『盛南ループ200』乗車、「県立美術館前」下車\\n下川原 先回り（左回り）盛岡駅東口バスプール（10）番乗り場　美術館まで約13分　250円）\\n菜園    先回り（右回り）盛岡駅東口バスプール  （5）番乗り場　美術館まで約31分　250円）\\n盛岡駅西口より徒歩約20分（約1.7km）",39.693583,141.124838,"美術館"
"豊田市美術館","〒471-0034 愛知県豊田市小阪本町8丁目5－1","愛知","0565-34-6610","アンチ・アクション　彼女たち、それぞれの応答と挑戦","","/images/exhibition-image/1560030.jpg","https://www.museum.toyota.aichi.jp/","https://www.museum.toyota.aichi.jp/exhibition/antiaction?t=plan","2025年10月4日(土)","2025年11月30日(日)","1950～60年代の日本の女性美術家たちの創作活動を、「アンチ・アクション」という視点から再評価する展覧会です。\\n当時、力強い筆致や身体的な動きを重視する「アクション・ペインティング」や「アンフォルメル」といった男性的表現が美術界を席巻していました。しかし、そうした表現が中心的に評価される一方で、異なるアプローチをとった多くの女性美術家たちの作品は、歴史の中で見過ごされがちでした。\\n本展では、草間彌生、田中敦子、福島秀子ら14名の女性美術家による約120点の作品を紹介。彼女たちは、あえて激しい身体性やアクション性に依らず、静けさ、繊細さ、反復、構造性などを用いた独自の表現方法で、時代や美術への挑戦を試みていました。\\nまた、展覧会のキーワードである「アンチ・アクション」は、2019年刊行の中嶋泉著『アンチ・アクション』に基づくもので、ジェンダーの視点から戦後美術を見直すアプローチを取り入れています。\\n本展を通じて、表現の多様性とその背景にあるジェンダーの問題に目を向けることで、これまで光の当たらなかった女性美術家たちの創作の深みと革新性を改めて体感することができるでしょう。","10時～17時30分 （入場は17時まで）","月曜日（祝日の場合は開館）","	一般1500円、高校・大学生1000円、中学生以下無料\\n*オンラインチケット、前売券及び20名以上の団体は200円割引（他割引との併用不可）\\n*本チケットで美術館本館のコレクション展及び髙橋節郎館の展示もご覧いただけます。\\n*高校・大学生の方は、学生証をご提示ください。","名鉄豊田市駅または愛知環状鉄道新豊田駅より約800m",35.079993,137.151785,"美術館"
"金沢21世紀美術館","〒920-8509 石川県金沢市広阪1丁目2－1","石川","076-220-2800","オトボン・ンカンガ　シェイプド・バイ・メニー","","/images/exhibition-image/1560030.jpg","https://www.kanazawa21.jp/","https://www.kanazawa21.jp/data_list.php?g=17&d=1832","2025年9月27日(土)","2025年11月24日(月)","ナイジェリア生まれで、現在はベルギーを拠点に国際的に活躍するアーティスト、オトボン・ンカンガ（Otobong Nkanga）。彼女の作品は、土や大地、海といった自然資源が、人間の営みや社会、政治とどのように関係しているかを問い直す独自の視点で注目されています。\\n本展では、石川県内での素材や伝統工芸に対するリサーチをもとに、地元の職人たちと協働して制作された新作インスタレーションを発表。素材そのものが持つ歴史や意味に対する洞察を含みながら、地域の文化や技術が国際的な芸術表現とどのように融合するかを体感できます。\\nさらに、当館が新たに収蔵したタペストリー作品も公開。オトボン・ンカンガの代表的なメディアであるこの作品群は、織物という手法を通じて、土地に刻まれた記憶や人々の営みを詩的かつ政治的に表現します。\\n地域性とグローバルな視点、素材と歴史、身体と環境──そうした複層的なテーマが交差する、深い思索へと誘う展覧会です。","展覧会ゾーン：10:00～18:00（金・土曜日は20:00まで）交流ゾーン：9:00～22:00","月曜日（ただし10月13日、10月27日、11月3日、11月24日は開場）10月14日、10月28日、11月4日","美術館の建物への入館（交流ゾーン）は無料です。展覧会ゾーンへの入場は展覧会観覧券（有料）が必要です。","路線バス：JR金沢駅バスターミナル 兼六園口（東口）3番、8番乗り場よりバスにて約10分「広坂・21世紀美術館」にて下車すぐ。兼六園口8～11番乗り場よりバスにて約10分「香林坊（アトリオ前）」下車、徒歩約5分。\\n金沢ショッピングバス（土日祝・年末年始・旧盆期間運行）：JR金沢駅バスターミナル東口7番乗り場から約20分「広坂・21世紀美術館(しいのき迎賓館向かい)」にて下車すぐ",36.560875,136.658151,"美術館"
"MOA美術館","〒413-8511 静岡県熱海市桃山町26－2","静岡","0557-84-2511","プロジェクション又兵衛絵巻　重文 浄瑠璃物語絵巻","","/images/exhibition-image/1560030.jpg","https://www.moaart.or.jp/","https://www.moaart.or.jp/events/projection_matabei/","2025年9月12日(金)","2025年10月21日(火)","江戸時代初期に活躍した絵師、**岩佐又兵衛勝以（1578〜1650）**は、ふっくらとした頬や長い顎をもつ人物表現、大和絵と漢画を融合させた独自の画風で人気を博し、後世の絵画にも大きな影響を与えました。\\n本展で公開されるのは、又兵衛の代表作ともされる**「浄瑠璃物語絵巻」です。これは、三河の豪族の娘・浄瑠璃と奥州へ向かう若者との恋物語を描いた絵巻で、全12巻が揃った形で重要文化財**にも指定されています。\\n金箔や群青、緑青などの高価な顔料が贅沢に使われ、登場人物の衣装や室内の調度品にいたるまで、細やかで華やかな筆致が施されており、又兵衛の作品群の中でも最も色彩豊かで絢爛な絵巻として知られています。\\n本展では、絵巻全巻を一挙に公開するとともに、高精細の映像投影により、肉眼では見逃しがちな細部の美まで鑑賞することが可能です。華やかな絵巻世界に浸りながら、江戸初期の絵師・又兵衛の魅力を堪能できる貴重な機会です。","9:30-16:30（最終入館は16:00まで）","木曜日（祝休日の場合は開館）\\n展示替え日","一般	2000円（1800円）\\n高大生	1400円（1200円）\\n中学生以下	無料\\n障害者割引	無料	\\n（　）内は20名以上の団体料金","JR熱海駅バスターミナル8番乗り場より「MOA美術館行き」約7分\\n終点「MOA美術館」下車すぐ\\n※2023年12月1日(金)より運賃大人200円・子供100円になります",35.10917,139.07528,"美術館"
"福井県立恐竜博物館","〒911-8601 福井県勝山市村岡町寺尾51－11","福井","0779-88-0001","獣脚類２０２５～「フクイ」から探る恐竜の進化～","","/images/exhibition-image/1560030.jpg","https://www.dinosaur.pref.fukui.jp/","https://www.dinosaur.pref.fukui.jp/special/theropod2025/","2025年7月11日(金)","2025年11月3日(月)","2025年の特別展では、2018年にも大きな話題を呼んだ「獣脚類（じゅうきゃくるい）」に再び焦点を当てます。獣脚類とは、ティラノサウルスやヴェロキラプトルに代表される、二足歩行の恐竜グループで、一般には「肉食恐竜」のイメージで知られています。\\nしかし、今回の展示ではそのイメージを覆すような進化の多様性に迫ります。白亜紀には、草食や魚食、水中生活への適応など、従来とはまったく異なる特徴を持つ種が現れ、獣脚類は大きく進化の幅を広げていました。\\n展示では、恐竜博物館の発掘調査から明らかになった4つの主要系統に注目し、それぞれの進化の道筋をたどります。中でも見どころは以下の通りです：\\n・スピノサウルス：水中適応の可能性が示された恐竜で、最新の復元に基づく全長14mの全身骨格模型を展示\\n・アジアティラヌス：2024年に新種記載されたばかりの肉食恐竜の貴重な実物化石を公開\\n・ティラノミムス：世界初公開となる全身骨格の展示で、その詳細な姿が明らかに\\n本展では、単なる「肉食恐竜」の枠を超えた、獣脚類の型破りな進化と多様な生態を、化石と復元模型、映像などを通して体感できます。恐竜の進化の謎に迫る、まさに“知的冒険”の特別展です。","午前9時から午後5時まで（入館は午後4時30分まで（再入館を含む））\\n※夏季延長開館期間（令和7年度は7月19日から8月17日まで）は午前8時30分から午後6時まで（入館は午後5時30分まで（再入館を含む））\\n予約制となっております。","第2・4水曜日（祝日の時はその翌日、夏休み期間は無休）\\n年末年始（12月31日と1月1日）\\n展示替えや施設の点検のため臨時に休館することがあります。","[個人]	\\n一般	1800円\\n高・大学生	1600円\\n小・中学生	1000円\\n70歳以上	1000円\\n\\n未就学児	無料\\n[団体（30名以上）] 一般 1600円\\n高・大学生 1,300円\\n小・中学生 800円\\n	70歳以上の方 800円\\n未就学児	無料\\n身体障害者手帳、療育手帳、精神障害者保健福祉手帳をお持ちの場合,観覧料が減免、割引等の対象となります。\\n対象：本人およびその介護者１名（当日、予約確認時に手帳をご提示ください。）","電車・バスでのアクセス\\nJR福井駅に到着後、えちぜん鉄道へ乗り換えとなります。\\n勝山永平寺線に乗車後、勝山駅（終点）にて下車し、バスまたはタクシーをご利用ください。\\n北陸自動車道　福井北JCTから中部縦貫自動車道（無料区間）に入り、勝山ICから国道416号線をご利用ください。（福井北JCTから約30分）\\n車でのアクセス\\n東海北陸自動車道をご利用の場合、白鳥JCT・ICから中部縦貫自動車道油坂峠道路、国道158号、国道157号をご利用ください。（白鳥JCT・ICから約1時間30分）",36.082846,136.506519,"博物館"
"富山県美術館","〒930-0806 富山県富山市木場町3－20","富山","076-431-2711","ポップ・アート　時代を変えた4人","","/images/exhibition-image/1560030.jpg","https://tad-toyama.jp/","https://tad-toyama.jp/exhibition-event/19503","2025年9月6日(土)","2025年10月26日(日)","1960年代のアメリカで誕生し、社会に強いインパクトを与えたポップ・アート。新聞の写真や広告、パッケージ、著名人の肖像など、私たちの日常にあふれるイメージをアートに取り入れ、大衆文化と美術の境界を取り払ったムーブメントです。\\n本展では、そんなポップ・アートを代表する4人の作家：\\n・ロイ・リキテンスタイン\\n・アンディ・ウォーホル\\n・ロバート・ラウシェンバーグ\\n・ジャスパー・ジョーンズ\\nを、「FAB 4（ファブ・フォー）」と呼び、ロックバンド「ザ・ビートルズ」と同様に時代を象徴する存在として紹介します。\\n展示されるのは、スペインのコレクター、ホセルイス・ルペレス氏が所蔵する貴重なコレクションから、約120点におよぶ版画・ポスター・服飾品など。本邦初公開となる作品も多数含まれています。\\n戦争や社会問題、音楽やメディアが交錯する激動の時代に、ポップ・カルチャーをアートに変えた4人の足跡をたどる本展。**“アートってなに？”**という問いに、新しい視点を与えてくれる内容となっています。","9:30～18:00（入館は17:30まで）","毎週水曜日（祝日除く） 祝日の翌日","	一般前売り：1300円、一般：￥1500（￥1300）円、大学生：￥1000（￥800）円\\nキャンベルスープ缶付き前売券：1700円\\n高校生以下無料。（ ）内は20名以上の団体料金\\n次の方は、企画展・コレクション展とも観覧無料\\n児童、生徒（小・中学生、高校生など）\\n②学校教育、社会教育活動としての児童・生徒の引率者（観覧料免除申請書が必要です）\\n③各種手帳またはミライロIDをお持ちの障がい者の方の観覧（付き添いは手帳をお持ちの方1名につき1人まで無料）","富山駅北口から\\n徒歩\\n約15分\\nバス\\n1番のりば「富山赤十字病院　県美術館経由」に乗車、「富山県美術館」下車すぐ",36.710928,137.210083,"美術館"
"足立美術館","〒692-0064 島根県安来市古川町320","島根","0854-28-7111","心に響く日本画55選","©足立美術館","/images/exhibition-image/55sen.jpg","https://www.adachi-museum.or.jp/","https://www.adachi-museum.or.jp/archives/exhibition/autumn2025","2025年8月31日(日)","2025年11月30日(日)","足立美術館が誇る日本画コレクションは、横山大観、竹内栖鳳、川合玉堂、上村松園、川端龍子、榊原紫峰といった近代日本画の巨匠たちによる傑作の数々から成り立っています。\\n本展では、美術館の開館55周年を記念して、これらの作家による名作の中から厳選した55点を一挙公開。描かれるモチーフは、華やかな花鳥画、風情ある風景画、人間味と品格に満ちた人物画など多岐にわたり、それぞれが日本の四季や自然、精神文化を映し出しています。\\nまた、表現手法にも注目。鮮やかな色彩や幽玄な墨の世界、繊細な筆致や大胆な構図など、作家ごとの個性が際立つ多彩な作品群は、日本画の奥深さと豊かさを感じさせてくれます。\\n自然と共に生きる日本人の感性が息づく作品を通して、季節の移ろいや美の本質にふれる貴重な機会となるでしょう。","夏季 4月－9月 9:00－17:30\\n冬季 10月－3月 9:00－17:00","年中無休(新館のみ展示替えのため休館日あり)\\n[新館休館日]2025年10月23日～24日、11月17日～18日\\n※新館では現代日本画を中心とする展覧会を開催しています。日本庭園や本館、魯山人館で開催している展覧会は新館休館日でもご覧になれます。","大　人 2500円 (2200円)\\n大学生 2000円 (1700円)\\n高校生 1000円 (800円)\\n小中学生500円 (400円)\\n※()内は団体(20名以上)料金です。\\n※本料金で日本庭園や本館・魯山人館・新館で開催中の展覧会など、すべてをご覧いただけます。","JRの場合　JR安来駅から無料シャトルバス約20分",35.380022,133.193989,"美術館・庭園"
"足立美術館","〒692-0064 島根県安来市古川町320","島根","0854-28-7111","音を感じる","","/images/exhibition-image/1560030.jpg","https://www.adachi-museum.or.jp/","https://www.adachi-museum.or.jp/archives/exhibition/annex-2025-6-25"," 2025年6月25日(水)","2025年10月22日(水)","日本画には、実際には聞こえないはずの「音」が描かれていることがあります。\\n画家が現地取材や自身の体験をもとに生み出した情景には、水面に広がる雨の波紋、夜空に響く花火の轟音、線路を走る電車の音など、五感を刺激するような表現が随所に見られます。\\n本展では、そうした「音」をテーマに、思わず耳を澄ませたくなるような作品を厳選して紹介。視覚とともに聴覚にも訴えかけてくるような絵画体験を通じて、日本画の奥行きや臨場感をより深く味わうことができます。\\n絵の中に「聞こえる世界」が広がる、新たな美術鑑賞のかたちをお楽しみください。","夏季 4月－9月 9:00－17:30\\n冬季 10月－3月 9:00－17:00","会期中無休","大　人 2500円 (2200円)\\n大学生 2000円 (1700円)\\n高校生 1000円 (800円)\\n小中学生 500円 (400円)\\n※()内は団体(20名以上)料金です。\\n※本料金で日本庭園や本館・魯山人館・新館で開催中の展覧会など、すべてをご覧いただけます。","JRの場合　JR安来駅から無料シャトルバス約20分",35.380022,133.193989,"美術館・庭園"
"島根県立美術館","〒690-0049 島根県松江市袖師町1－5","島根","0852-55-4700","永田コレクションの全貌公開〈二章〉 北斎－「葛飾北斎期」・「戴斗期」編","©島根県立美術館","/images/exhibition-image/hokusai.jpg","https://www.shimane-art-museum.jp/","https://www.shimane-art-museum.jp/exhibition/000970.html","2025年9月10日(水)","2025年11月3日(月)","江戸時代を代表する浮世絵師・葛飾北斎の中期（46～60歳頃）に焦点を当て、彼が挿絵や絵手本を手がけた版本（版で刷られた書物）を500冊以上公開する貴重な展覧会です。\\nこれらは、北斎研究の第一人者・**永田生慈氏（1951–2018）から寄贈された「永田コレクション」**の中でも、通常県外では見ることができない貴重な資料群。読本（長編小説）や絵手本に見る北斎の力量と創意が詰まった、「版本世界（ブックワールド）」の真髄を堪能できます。\\n本を媒体にした北斎の芸術世界を知る、またとない機会です。","9月】10:00〜日没後30分（展示室への入場は日没時刻まで）\\n【10月・11月】10:00〜18:30（展示室への入場は18:00まで)","	火曜日（ただし9/23は開館）","[オンラインチケット・ローソンチケット（コレクション展とのセット販売）]\\n一般	900円　大学生	600円　小中高生　--\\n[当日券（本展のみ)]\\n一般	1000（800）円　大学生	600（450）円　小中高生	無料\\n[当日券（コレクション展とのセット販売）]\\n一般	1150（920）円　大学生　700（530）円　小中高生　無料","JRを利用\\n東京方面から\\nJR東京駅から新幹線（約3時間20分）→JR岡山駅から特急「やくも」（約2時間40分） JR東京駅から寝台特急「サンライズ出雲」（約11時間30分）\\n大阪方面から\\nJR新大阪駅から新幹線（約50分）→JR岡山駅から特急「やくも」（約2時間40分）\\n九州方面から\\nJR博多駅から新幹線（約1時間40分）→JR岡山駅から特急「やくも」（約2時間40分）\\nJR松江駅から\\n徒歩約15分\\n松江市営バス「南循環線内回り」6分 → 県立美術館前バス停",35.459822,133.052819,"美術館"
"大原美術館","〒710-8575 岡山県倉敷市中央1丁目1－15","岡山","086-422-0005","コレクション展　OHARAコレクション・ハイライト―収集の軌跡：絵画・彫刻編","","/images/exhibition-image/1560030.jpg","https://www.ohara.or.jp/event/","https://project.ohara.or.jp/collection_exhibition1","2024年9月28日(土)","","1930年、日本で初めて西洋美術を常設展示するミュージアムとして誕生した大原美術館は、まもなく創立100年を迎えます。本展では、その長い歴史を「作品収集＝コレクションづくり」という視点から振り返ります。\\n展示されるのは、エル・グレコの1600年頃の絵画から、19世紀末のヨーロッパ美術、さらには21世紀の日本現代アートまで、時代とジャンルを超えた約80点の名作たち。それぞれの作品の背後には、収集に関わった人々の情熱や、その時代ごとの美術観が息づいています。\\n大原美術館のコレクションがどのように始まり、育ち、そして未来へと継承されていくのか——その過程を、貴重な資料とともにたどりながら、美術館が果たしてきた文化的使命にも思いを巡らせられる、見応えある展示です。\\n\\n２０２４年9月28日からのコレクション展です","《12月～2月》 9:00～15:00（最終入館14:30） 児島虎次郎記念館は10:00～16:00 《3月～11月》 9:00～17:00（最終入館16:30） 児島虎次郎記念館は10:00～15:00","休館日：毎週月曜日・冬期休館あり\\n休館日が祝日、振替休日と重なった場合は開館\\n7月下旬～8月は無休","本館/工芸・東洋館/児島虎次郎記念館　共通\\n一般	2000円\\n高校・中学・小学生（18歳未満の方）	500円\\n※小学生未満は無料です。\\n※団体料金はありません。","「岡山駅」→JR山陽本線で「倉敷駅」(約18分)→徒歩約15分→大原美術館\\n「新倉敷駅」→JR山陽本線で「倉敷駅」(約10分)→徒歩約15分→大原美術館",34.596088,133.770654,"美術館"
"九州国立博物館","〒818-0118 福岡県太宰府市石坂4丁目7－2","福岡","050-5542-8600","法然と極楽浄土","","/images/exhibition-image/1560030.jpg","https://www.kyuhaku.jp/","https://www.kyuhaku.jp/exhibition/exhibition_s74.html","2025年10月7日(火)","2025年11月30日(日)","戦乱や災害に苦しむ平安時代末期、誰もが救われる道を説いた**法然上人（1133〜1212）**の教えは、人々に大きな希望をもたらしました。「南無阿弥陀仏」と念仏を唱えるだけで極楽浄土に往生できるという浄土宗の教えは、貴族から庶民にまで広まり、後に徳川将軍家の信仰も受けるなど、日本仏教の中で重要な位置を築いてきました。\\n本展は、浄土宗の開宗850年を記念し、法然ゆかりの貴重な宝物や、浄土教美術の優品を一堂に展示。法然の生涯とその思想、そして浄土宗が歩んできた歴史を、美術と史料を通して辿る貴重な機会です。\\n心の拠り所を求めた人々と、それに応えた宗教芸術の数々。時代を超えて語りかけるその世界観に、ぜひ触れてみてください。","日曜日・火曜日〜木曜日 9時30分〜17時00分（入館は16時30分まで）\\n金曜日・土曜日【夜間開館】 9時30分〜20時00分（入館は19時30分まで）\\n＊夜間開館の実施については変更になることがあります","月曜日〔ただし10月13日（月・祝）・11月3日（月・祝）・11月24日（月・振休）は開館、10月14日（火）・11月4日（火）・11月25日（火）は休館〕","一　般	2000円（1800円）\\n高大生	1200円（1000円）\\n小中生	無料","西鉄を利用の場合\\n西鉄福岡（天神）駅から約35分\\n西鉄福岡（天神）駅から西鉄天神大牟田線（特急約16分／急行約18分）で西鉄二日市駅乗り換え、西鉄太宰府線（約5分）で西鉄太宰府駅下車、徒歩で約10分（＊特急／急行料金不要）\\n大牟田方面から\\n西鉄天神大牟田線（天神方面行き）で西鉄二日市駅乗り換え、西鉄太宰府線（約5分）で西鉄太宰府駅下車、徒歩で約10分（＊特急／急行料金不要）\\nJRを利用の場合\nJR博多駅から\\n博多バスターミナルから太宰府ライナーバス「旅人」（約40分）で西鉄太宰府駅下車、徒歩で約10分。\\nJR二日市駅から\\n経路①	徒歩（約12分）または西鉄バス（約6分）で西鉄二日市駅へ、西鉄二日市駅から西鉄太宰府線利用。西鉄太宰府駅下車、徒歩で約10分\\n経路②	タクシーで九州国立博物館まで約15分\\n経路③	西鉄バスで九州国立博物館まで約30分（＊1時間に1本運行）\\n車を利用の場合\\n太宰府IC または 筑紫野IC から高雄交差点経由で約20分",33.518167,130.538296,"博物館"
"長崎県美術館","〒850-0862 長崎県長崎市出島町2－1","長崎","095-833-2110","ジャネット・カーディフ《40声のモテット》","©長崎県美術館","/images/exhibition-image/ジャネット.JPG","https://www.nagasaki-museum.jp/","https://www.nagasaki-museum.jp/archives/exhibition_post/21820","2025年10月17日(金)","2025年11月16日(日)","カナダの現代アーティスト ジャネット・カーディフ（1957年生） による、世界的に高く評価されているサウンド・インスタレーション作品《40声のモテット》が長崎で初展示されます。\\nこの作品は、16世紀英国の作曲家トマス・タリスの合唱曲《我、汝の他に望みなし（Spem in alium）》をもとに、40台のスピーカーを楕円形に配置し、それぞれから個別の声部を再生するというもの。鑑賞者は空間を歩き回りながら、音楽に包まれるような没入体験を味わうことができます。\\n2001年の初公開以来、世界各地の美術館で絶賛されてきたこの作品は、まるで音が彫刻のように空間を形作り、聴覚だけでなく身体全体で音楽を感じさせる名作です。今回の展示は、長崎でこの体験を味わえるまたとない機会となります。","10：00～20：00\\n※事業等により時間を変更することがあります。","毎月第2・第4月曜日（休日・祝日の場合は火曜日が休館)","一般 1,000円(800円)\\n大学生・70歳以上 800円(600円)\\n高校生以下無料\\n( )内は前売りおよび15名以上の団体料金","路面電車\\n１号系統（赤迫～崇福寺）　「出島」下車　→　徒歩3分\\n５号系統（蛍茶屋～石橋）　「メディカルセンター」下車　→　徒歩5分\\nバス\\n県営バス・長崎バス「新地中華街」下車（空港リムジンバス、高速バス含む※）　→　徒歩5分\\n県営バス・長崎バス「大波止」下車（空港リムジンバス、高速バス含む※）　→　徒歩8分\\nJR\\n長崎駅下車 長崎港方面へ　→　徒歩15分\\nフェリー\\n長崎港ターミナル　→　徒歩10分\\n車\\n長崎自動車道・長崎ICより　ながさき出島道路経由　5分",32.741666,129.871027,"美術館"
"大分県立美術館(OPAM)","〒870-0036 大分県大分市寿町2-1","大分","097-533-4500","きらめく日本美術　1300年の至宝展","","/images/exhibition-image/1560030.jpg","https://www.opam.jp/","https://www.opam.jp/exhibitions/detail/e625e35e-7c22-468c-a0dd-e0d0e6c8e0a2","2025年11月22日(土)","2026年1月14日(水)","大分の美術は、古くから中央（京都・奈良・江戸など）の文化と密接に交流しつつも、独自の発展を遂げてきました。本展では、八幡信仰にまつわる神像や祭礼美術、禅宗寺院で育まれた水墨画や工芸品、南蛮貿易を通じてもたらされた異国趣味の品々、そして豊後地方特有の南画（文人画）の数々をご紹介します。\\nとりわけ注目は、大友宗麟（戦国時代の豊後国主）ゆかりの茶道具です。宗麟が所蔵した現存品が、一堂に会するのは今回が初めて。茶の湯文化を通じて、大分がいかに国内外の美意識を取り入れ、再解釈してきたかを体感できます。\\n国宝や重要文化財を含む、美術工芸品およそ100点を展示。地域と世界、そして信仰と芸術が交差する豊かな美の広がりをご覧ください。","10:00～19:00　※金曜日・土曜日は20:00まで(入場は閉館の30分前まで)","原則無休。ただし、館内点検等による臨時休館があります。","未定","車を利用の場合\\n大分ICから車で10分\\nJR大分駅から\\nJR大分駅府内中央口（北口）から徒歩15分\\nJR大分駅前7番乗り場から、大分交通バス 青葉台線（田室町経由）23番、24番／県立図書館線（田室町経由）3番／スカイタウン高崎線（西春日町経由）8番に乗車、「オアシスひろば前」下車徒歩すぐ\\n大分空港から\\n空港特急バスエアライナー乗車約1時間、大分駅前下車",33.239371,131.601319,"美術館"
"熊本市現代美術館","〒860-0845 熊本県熊本市中央区上通町2-3","熊本","096-278-7500","遠山昇司 収蔵庫の鳥たち","","/images/exhibition-image/1560030.jpg","https://www.camk.jp/","https://www.camk.jp/exhibition/toyamashoji/","2025年10月5日(日)","2025年12月14日(日)","熊本県八代市出身の映画監督・遠山昇司は、映画制作だけでなく、アートプロジェクトや舞台演出、芸術祭の統括など、多分野で活躍してきました。本展は、「鳥」をキーワードに、美術館収蔵品や自身の過去作・新作を組み合わせたインスタレーションとして構成されます。\\n代表作として、海上の小学校を郵便局に見立てた「赤崎水曜日郵便局」や、豪雨災害後の球磨川を舞台にした映画「あの子の夢を水に流して」を紹介。また、シベリア抑留体験を描いた宮崎静夫の作品をもとにした新作「鶴をひらく」、そして展覧会タイトルにもなっている「収蔵庫の鳥たち」も展示されます。\\nさらに、熊本県立小国高等学校の生徒と共同制作した映像作品「しろい息」も公開。映画、現代美術、地域文化が交差する、遠山ならではの視点と物語性を味わえる内容です。","午前10時から午後8時（展覧会入場は午後7時30分まで）","火曜日","一般： 1300（1100）円\\nシニア〔65歳以上〕： 1000（800）円\\n学生〔高校生以上〕： 800（600）円\\n中学生以下： 無料\\n*（　）内は前売／20名以上の団体／電車・バス1日乗車券、市電緑のじゅうたんサポーター証、熊本県立美術館友の会証、JAF会員証をご提示の料金\\n* 各種障害者手帳（身体障害者手帳、療育手帳、精神障害者保健福祉手帳、被爆者健康手帳等）をご提示の方とその付き添い1名は無料","JR九州利用の場合\\n熊本駅から市電またはバスで15分、通町筋下車\\n新水前寺駅から市電またはバスで10分、通町筋下車\\n高速バスまたは高速道をご利用の場合\\n高速バスは通町筋下車\\n高速自動車道熊本インターまたは益城熊本空港インターから車で30分",32.803162,130.710985,"美術館"
"鹿児島市立美術館","〒892-0853 鹿児島県鹿児島市城山町4-36","鹿児島","099-224-3400","藤田嗣治　7つの情熱","","/images/exhibition-image/1560030.jpg","https://www.city.kagoshima.lg.jp/artmuseum/","https://www.city.kagoshima.lg.jp/artmuseum/exhibition-r7special-foujita.html","2025年10月3日(金)","2025年11月9日(日)","1920年代のフランス美術界で一世を風靡した日本人画家、藤田嗣治（レオナール・フジタ／1886–1968）。\\n彼の代名詞ともいえる「乳白色の肌」を描く独自の技法と繊細な線描により、エコール・ド・パリの中心的存在として世界的な名声を得ました。\\n本展では、藤田研究の第一人者であるシルヴィー・ビュイッソン氏の監修のもと、以下の7つのテーマから藤田の芸術と生涯を多面的に掘り下げます：\\n・自己表現\\n・風景\\n・前衛\\n・東方と西方\\n・女性\\n・子ども\\n・天国と天使\\nまた、第2部では、川島理一郎、東郷青児、海老原喜之助ら、藤田と親交のあった9人の日本人美術家にも焦点を当て、彼らとの関係性や藤田が日本近代美術に与えた影響を再評価します。\\n展示作品は、油彩、版画、水彩、素描、関連資料など160点以上にのぼり、個人コレクションも含め国内外から集められた貴重な作品が一堂に会します。\\nさらに本会場では、藤田と同時代に活躍したピカソ、キスリング、パスキンらエコール・ド・パリの画家たちの作品も併せて紹介。\\n藤田を中心に、20世紀前半の美術界の多様な潮流を感じることができる、見応えある展覧会です。","9：30～18：00(入館は17：30まで)","10月6日（月曜日）、10月14日（火曜日）、10月20日（月曜日）、10月27日（月曜日）","一般：1200円（前売り1000円） 高大学生：800円（前売り500円） 小中生：600円（前売り300円）\\n（　）内は前売料金及び20人以上の団体料金、年間パスポートまたは障害者手帳提示者は同料金で観覧できます。\\n会期中は、本展チケットで所蔵品展も観覧できます。","市電「朝日通」、バス「金生町」下車、徒歩5分。\\n鹿児島本線鹿児島中央駅より、車で10分。",31.595836,130.553336,"美術館"
"兵庫人と自然の博物館","〒669-1546 兵庫県三田市弥生が丘６丁目","兵庫","079-559-2001","甲虫展－ ひとはくコレクションのビートルズ－","©兵庫人と自然の博物館","/images/exhibition-image/昆虫展.png","https://www.hitohaku.jp/","https://www.hitohaku.jp/exhibition/planning/beetles2025.html","2025年7月19日(土)","2026年1月12日(月)","カブトムシやテントウムシ、タマムシなど、私たちの身近な甲虫はほんの一部にすぎません。甲虫は世界で約39万種が知られ、その形や大きさ、色、生活様式は非常に多様です。\\n本展では、兵庫県立人と自然の博物館が30年以上かけて収集してきた豊富な甲虫コレクションをもとに、驚くほど多彩な甲虫の世界を紹介。子どもから大人まで楽しめる展示で、自然界の多様性や昆虫の不思議な生態を体感できます。","10:00 ~ 17:00(入館は16:30まで)","月曜日(祝日の場合はその翌日・8/12(火)は開館)、年末年始(12/28(日)～1/5(月))","無料(別途入館料が必要：大人200円、大学生150円、70歳以上100円、高校生以下無料)","〇三宮から\\n神戸市営地下鉄「三宮」駅から谷上方面行きに乗り「谷上」駅で 神戸電鉄に乗り換えて、「三田」行きに乗車。\\nまたは阪神/阪急「神戸三宮」駅から、神戸高速線で「新開地」駅に行き 神戸電鉄に乗り換えて、「三田」行きに乗車。\\n三田駅より２つ手前の「横山」駅で、「ウッディタウン中央」行きに乗り換えて、「フラワータウン」駅で下車（「谷上」駅からの所要時間約40分）。\\n「フラワータウン」駅から徒歩5分。\\n大阪から\\nＪＲ「大阪駅」またはＪＲ「尼崎駅」よりＪＲ宝塚線（福知山線）「新三田」、「篠山口」行きまたは「福知山」行きに乗車後、「三田」駅で下車。\\n神戸電鉄「三田」駅から「ウッディタウン中央」行きに乗車、「フラワータウン」駅で下車 （ＪＲ「大阪」駅から所要時間約50分）。\\n「フラワータウン」駅から徒歩5分。",34.886241,135.198986,"博物館"
"国立民族学博物館","〒565-0826 大阪府吹田市千里万博公園１０−１","大阪","06-6876-2151","舟と人類―アジア・オセアニアの海の暮らし","©国立民族学博物館","/images/exhibition-image/船と人類.jpg","https://www.minpaku.ac.jp/","https://www.minpaku.ac.jp/ai1ec_event/59680","2025年9月4日(木)","2025年12月9日(火)","舟やカヌーは、人類史においてホモ・サピエンスが本格的に利用するようになった道具のひとつです。本展では、人類史の視点を交えつつ、アジアやオセアニアの海域で使われてきた多様な舟を紹介します。\\n漁業や交易、祭礼や儀式など、地域ごとの文化や生活に根ざした舟のかたちや装飾もあわせて展示。海と人との関わりや、舟づくりの工夫、航海技術の進化を感じられる内容になっています。","10：00～17：00（入館は16：30まで）","水曜日","一般1,200円（810円）、大学生600円（340円）、高校生以下無料\\n※本館展示もご覧になれます。\\n※（　）は、20名以上の団体料金、大学等の授業でご利用の方、3ヶ月以内のリピーター、満65歳以上の方（一般料金）の割引料金（要証明書等）。\\n※障がい者手帳をお持ちの方は、付添者1名とともに、無料で観覧できます。","大阪モノレール（本線） → 「万博記念公園」駅　→　中央口　→　国立民族学博物館\\n大阪モノレール（彩都線） → 「公園東口」駅　→　日本庭園前ゲート　→　国立民族学博物館\\n路線バス（近鉄バス） →　日本庭園前バス停　→　日本庭園前ゲート　→　国立民族学博物館\\n中央駐車場　→　中央口　→　国立民族学博物館\\n日本庭園前駐車場　→　日本庭園前ゲート　→　国立民族学博物館\\n西駐車場　→　西口　→　西口　→　国立民族学博物館",34.812848,135.529717,"博物館"
"清里フォトアートミュージアム","〒407-0301 山梨県北杜市高根町清里３５４５−１２２２","山梨","0551-48-5599","写真と肖像　顔から風景へ","©清里フォトアートミュージアム","/images/exhibition-image/写真と肖像.jpg","https://www.kmopa.com/","https://www.kmopa.com/kmopa%e9%96%8b%e9%a4%a830%e5%91%a8%e5%b9%b4%e8%a8%98%e5%bf%b5%e5%b1%95%e3%80%80%e5%be%8c%e6%9c%9f%e3%80%8c%e5%86%99%e7%9c%9f%e3%81%a8%e8%82%96%e5%83%8f%e3%80%80%e9%a1%94%e3%81%8b%e3%82%89%e9%a2%a8/","2025年7月5日(土)","2025年10月13日(月)","清里フォトアートミュージアム（KMoPA）は、開館から30年を迎えました。開館当初に開催された「20代の写真家25人展」へのオマージュとして、今回はコレクションの中から35歳以下の写真家25名を取り上げ、二期構成で紹介します。\\n後期展のテーマは「肖像」。写真が登場する以前から続いてきた肖像表現は、自己の記録や理想像、権威の象徴として描かれてきました。写真の普及以降は、リアリズムだけでなく、記憶の定着や内面の探究、社会的メッセージの表現など、多様な意味を持つようになります。\\n本展では、肖像を切り口に「自己と他者」「個と社会」の関係性を探り、写真が映し出す人間と世界の在り方を問いかけます。","10：00～17：00（入館は16:30まで）","毎週火曜日　＊9月23日(火・祝)は開館","一般800円(600円)、大学生以下無料、山梨県北杜市にお住まいの方は入館無料\\n＊(　)内は20名様以上の団体料金\\n＊家族割引1,200円(2〜6名様まで)","車にて：中央自動車道須玉I.C.または長坂I.C.より車で約20分\\nＪ　Ｒ：中央本線小淵沢駅にて小海線乗り換え 清里駅下車、車で約10分",35.883098,138.4321,"写真"
"札幌市博物館活動センター(開催場所：北海道大学総合博物館)","〒062-0935 北海道札幌市豊平区平岸５条１５丁目１−６","北海道","011-374-5002","クジラの化石展ー札幌市博物館活動センターのコレクションよりー（北海道大学総合博物館で開催）","©札幌市博物館活動センター 提供","/images/exhibition-image/クジラの化石.png","https://www.city.sapporo.jp/museum/","https://www.city.sapporo.jp/museum/activity/event/2025/20250912kujirakasekijunkaiten.html","2025年9月12日(金)","2026年1月25日(日)","2025年に新種として発表されたサッポロクジラ（Megabalaena sapporoensis）の実物化石をはじめ、北海道内で見つかった新属・新種のヒゲクジラ化石のレプリカなど、学術的にも非常に貴重な標本を展示します。これらの資料は、北海道がかつて多様な海洋生物の生息地であったことを物語るものです。\\nさらに、研究の裏側や化石の見どころをわかりやすく解説する学芸員によるギャラリートークや、一般の方向けの土曜市民セミナーも開催予定。専門的な内容を身近に感じられる機会となっています。","10時00分から17時00分","月曜日、2025年9月14日（日曜日）、12月28日（日曜日）から2026年1月5日（月曜日）、1月17日（土曜日）、1月18日（日曜日）","無料","※博物館（北大構内）には車で乗り入れできません。博物館の駐車場はありません。\\nバス・地下鉄等の公共交通機関のご利用をお願い致します。\\n札幌市北区北10条西8丁目　北海道大学構内\\n・JR札幌駅北口より徒歩13分\\n・札幌市営地下鉄北12条駅より徒歩9分\\n・北海道大学正門より徒歩７分\\n・北海道大学北13条門より徒歩８分\\n・クラーク像とポプラ並木のちょうど中間にあります。",43.072472,141.342098,"博物館"
"琵琶湖博物館","〒525-0001 滋賀県草津市下物町１０９１","滋賀","077-568-4811","川を描く、川をつくる―古地図で昔の堤をさぐる―","©琵琶湖博物館","https://museum-search-app-theta.vercel.app/images/exhibition-image/kawa.PNG","https://www.biwahaku.jp/","https://www.biwahaku.jp/event/2025/07/33.html","2025年7月19日(土)","2025年11月24日(月)","滋賀県（旧・近江国）は、全国でも特に「天井川」が多い土地として知られています。かつては「はげ山」と呼ばれる草木の乏しい山々が広がり、水害や土砂災害にたびたび悩まされてきました。そのため、人々は川に堤防を築き、山の斜面に堰堤を設けるなど、さまざまな工夫を重ねて地域を守ってきました。\\n今回の展示では、17世紀から19世紀にかけての琵琶湖流域・淀川流域を舞台に、災害の記録や土木工事の計画を描いた古地図、治水にまつわる道具や古文書などを紹介します。また、古地図を手がかりに歴史を読み解く方法にも触れます。川とともに暮らした人々が残した記録を通じて、かつての堤の姿をたどってみてください。","9時30分～17時00分（入館は16時00分まで）","10月5日（日）、毎週月曜日（休日の場合は開館）、その他臨時休館あり。","大人 340円（団体料金：270円）\\n大学生 270円（同：210円）\\n小・中学生・高校生　170円（同：130円）\\n※団体料金は20名以上からとなります。\\n※企画展示をご覧になるには、別途、常設展示の観覧券が必要です。","お車でのご来館\\n名神「栗東IC」から約30分、名神「瀬田西IC」または新名神「草津田上IC」から約35分です。\\n鉄道（JR）とバス （近江鉄道バス）\\nJR琵琶湖線「草津」駅下車。（新快速で京都から約20分）\\nJR草津駅「西口」2番バス乗り場から、近江鉄道バス、琵琶湖博物館行き（約25分）、「琵琶湖博物館」下車。徒歩すぐ。\\n時刻表については、近江鉄道バスのHPをご覧ください。",35.074095,135.934813,"博物館"
"六義園","〒113-0021 東京都文京区本駒込６丁目１６−３","東京","03-3941-2222","秋の六義園～六義園で日本文化に親しむ～","©東京都公園協会","https://museum-search-app-theta.vercel.app/images/exhibition-image/rikugien.JPG","https://www.tokyo-park.or.jp/park/rikugien/index.html#event","https://www.tokyo-park.or.jp/event_search/event_55.html","2025年10月18日(土)","2025年12月6日(土)","六義園では、10月18日（土）から12月6日（土）までの期間、「日本文化に親しむ」をテーマとしたイベントを数多く実施します。伝統芸能・江戸太神楽の実演を体験できる企画をはじめ、日本茶の淹れ方を学ぶ講座、津軽三味線の演奏会、さらに六義園の作庭にゆかりのある和歌の浦を紹介するパネル展示など、幅広いプログラムが用意されています。\\nまた、11月8日（土）には「防災救急フェア」も同時開催され、地震体験車による揺れの体験やAEDの使用法を学ぶ機会も設けられています。紅葉に染まる園内で、文化と防災を学びながら充実したひとときをお過ごしください。","午前9時から午後5時まで、最終入園は午後4時30分","年末年始（12月29日から翌年1月1日まで）","入園料\\n一般　300円\\n65歳以上　150円\\n（小学生以下及び都内在住・在学の中学生は無料）\\n【20名以上の団体】\\n一般　240円\\n65歳以上　120円\\n※身体障害者手帳、愛の手帳、療育手帳、精神障害者保健福祉手帳をお持ちの方と、その付添者（原則1名）は無料です。","JR山手線「駒込」(南口)下車　徒歩7分\\n東京メトロ南北線「駒込」(N14)下車　徒歩7分\\n都営地下鉄三田線「千石」(I14)下車　徒歩10分\\n駐車場\\n・駐車場はございません",35.733139,139.746512,"庭園"
"小石川後楽園","〒112-0004 東京都文京区後楽１丁目６−６","東京","03-3811-3015","夜間特別開園「秋の夜長の小石川後楽園 2025」","©東京都公園協会","https://museum-search-app-theta.vercel.app/images/exhibition-image/koishikawa.JPG","https://www.tokyo-park.or.jp/park/koishikawakorakuen/index.html#event","https://www.tokyo-park.or.jp/event_search/2025_2_1.html","2025年10月10日(金)","2025年10月20日(月)","小石川後楽園では、「秋の夜長の小石川後楽園2025」と題した夜間特別開園を今年も実施します。\\n秋の澄んだ空気の中、光に彩られた庭園と文化的な雰囲気が調和する幻想的な時間をお楽しみください。\\n※観覧には夜間特別鑑賞券が必要です。","午前9時～午後5時（入園は午後4時30分まで）","年末・年始(12月29日～翌年1月1日まで)","一般　300円\\n65歳以上　150円\\n（小学生以下及び都内在住・在学の中学生は無料）\\n【20名以上の団体】\\n一般　240円\\n65歳以上　120円\\n※身体障害者手帳、愛の手帳、精神障害者保健福祉手帳または療育手帳持参の方と付添の方は無料","■東門\\nJR総武線「水道橋」（JB17）西口から徒歩5分\\n東京メトロ丸ノ内線・南北線「後楽園」（M22 / N11）2番出口から徒歩6分\\n都営三田線「水道橋」（I11）A2出口から徒歩8分\\n■西門　※涵徳亭ご利用の方は西門からご入園ください。\\n都営大江戸線「飯田橋」（E06）C3出口から徒歩3分\\nJR総武線「飯田橋」（JB16）東口から徒歩8分\\n東京メトロ東西線・有楽町線・南北線「飯田橋」（T06 / Y13 / N10）A1・A3出口から徒歩8分\\n東京メトロ丸ノ内線・南北線「後楽園」（M22 / N11）1番出口・2番出口より徒歩8分\\n駐車場\\n・駐車場はございません\\n・西門、東門それぞれ門の内側に駐輪場があります",35.705351,139.748979,"庭園"